{"type":"FeatureCollection","features":[{"type":"Feature","properties":{"school":"OAKLAND TECH","level":"high"},"geometry":{"type":"Polygon","coordinates":[[[-122.21216,37.85683],[-122.21409,37.85577],[-122.21419,37.85612],[-122.21741,37.85434],[-122.21952,37.8539],[-122.22128,37.85284],[-122.22188,37.85215],[-122.22254,37.85035],[-122.22295,37.84969],[-122.22367,37.849],[-122.22457,37.84848],[-122.22571,37.84815],[-122.22679,37.84808],[-122.23069,37.8487],[-122.22762,37.84552],[-122.22651,37.84384],[-122.22477,37.84167],[-122.22711,37.84288],[-122.22783,37.84288],[-122.22864,37.84247],[-122.22919,37.84244],[-122.2293,37.84214],[-122.2307,37.84151],[-122.23063,37.84103],[-122.22919,37.84006],[-122.22901,37.83933],[-122.22911,37.83903],[-122.22964,37.8386],[-122.23016,37.8388],[-122.23321,37.8376],[-122.23192,37.83647],[-122.2278,37.83368],[-122.227,37.83261],[-122.22729,37.83282],[-122.22753,37.83268],[-122.22729,37.83238],[-122.22776,37.83234],[-122.22916,37.83315],[-122.23081,37.83272],[-122.23076,37.83256],[-122.2314,37.83145],[-122.23227,37.83133],[-122.23251,37.8317],[-122.23522,37.83115],[-122.23535,37.83148],[-122.23714,37.83104],[-122.23706,37.8308],[-122.23783,37.83062],[-122.24092,37.83046],[-122.24271,37.83001],[-122.24364,37.83005],[-122.24337,37.82984],[-122.24364,37.82975],[-122.24336,37.82955],[-122.24374,37.82936],[-122.24422,37.82834],[-122.24759,37.82629],[-122.24812,37.82484],[-122.24929,37.82372],[-122.24869,37.82332],[-122.2494,37.82285],[-122.24642,37.82073],[-122.24497,37.81918],[-122.24376,37.81894],[-122.24349,37.81865],[-122.24323,37.81883],[-122.24278,37.81871],[-122.24266,37.8185],[-122.24219,37.81861],[-122.2417,37.81844],[-122.24176,37.81824],[-122.24047,37.81818],[-122.24012,37.81786],[-122.23989,37.81803],[-122.23936,37.8179],[-122.23903,37.8176],[-122.23871,37.81769],[-122.23811,37.81756],[-122.2382,37.81739],[-122.23763,37.81755],[-122.23634,37.81718],[-122.23617,37.81677],[-122.2363,37.8165],[-122.23739,37.81578],[-122.23923,37.81406],[-122.23826,37.81349],[-122.23957,37.81269],[-122.23891,37.81211],[-122.23961,37.81047],[-122.24094,37.80929],[-122.24158,37.80841],[-122.24195,37.80854],[-122.24185,37.8083],[-122.24475,37.80902],[-122.24666,37.80661],[-122.24796,37.80554],[-122.24929,37.80481],[-122.25094,37.80416],[-122.25108,37.80441],[-122.25054,37.80524],[-122.25099,37.80552],[-122.25305,37.80413],[-122.25448,37.80252],[-122.25558,37.80036],[-122.25827,37.80001],[-122.25937,37.79898],[-122.25958,37.79795],[-122.2596,37.79632],[-122.26117,37.79366],[-122.26272,37.7921],[-122.26326,37.79142],[-122.26345,37.7909],[-122.26448,37.79109],[-122.26552,37.7903],[-122.26608,37.79013],[-122.26693,37.78909],[-122.26844,37.78787],[-122.27389,37.79109],[-122.27824,37.79313],[-122.28089,37.79353],[-122.28415,37.7936],[-122.28317,37.79525],[-122.28216,37.79627],[-122.27327,37.81053],[-122.27341,37.81138],[-122.27298,37.81188],[-122.27277,37.81255],[-122.26843,37.82979],[-122.27758,37.83122],[-122.27736,37.83184],[-122.27799,37.83195],[-122.27785,37.83231],[-122.27722,37.83222],[-122.27562,37.83644],[-122.27639,37.83694],[-122.27695,37.83688],[-122.27715,37.83708],[-122.27808,37.83692],[-122.27883,37.83725],[-122.2817,37.83669],[-122.28187,37.83719],[-122.28451,37.83672],[-122.28814,37.84802],[-122.28842,37.84796],[-122.28855,37.84837],[-122.28827,37.84843],[-122.28875,37.85],[-122.28616,37.85054],[-122.28605,37.85017],[-122.28359,37.85065],[-122.28321,37.84934],[-122.2831,37.84937],[-122.28298,37.84901],[-122.28248,37.84912],[-122.28219,37.84831],[-122.282,37.84835],[-122.28188,37.84778],[-122.28207,37.84776],[-122.28191,37.84698],[-122.2762,37.84774],[-122.27581,37.84587],[-122.26916,37.84675],[-122.26952,37.84859],[-122.26841,37.84877],[-122.26898,37.85165],[-122.26397,37.85232],[-122.26394,37.85217],[-122.26362,37.8523],[-122.26364,37.85252],[-122.26226,37.85269],[-122.26224,37.85254],[-122.25845,37.85318],[-122.25822,37.85306],[-122.25723,37.85318],[-122.25725,37.85332],[-122.25398,37.85375],[-122.25396,37.85362],[-122.25346,37.85368],[-122.2535,37.85381],[-122.25335,37.85383],[-122.25293,37.85078],[-122.2511,37.85124],[-122.25091,37.85113],[-122.2507,37.85139],[-122.25005,37.85142],[-122.24999,37.85129],[-122.24739,37.85166],[-122.2466,37.85158],[-122.245,37.85172],[-122.24493,37.85189],[-122.2448,37.85174],[-122.23442,37.85236],[-122.23428,37.85247],[-122.23478,37.8578],[-122.23673,37.85757],[-122.23811,37.85756],[-122.23818,37.8577],[-122.23893,37.85755],[-122.23912,37.85773],[-122.23944,37.85752],[-122.23974,37.85757],[-122.24038,37.8573],[-122.24055,37.85755],[-122.24123,37.8574],[-122.24117,37.85727],[-122.24166,37.85706],[-122.24178,37.85725],[-122.2415,37.85738],[-122.24185,37.85735],[-122.24273,37.85794],[-122.24254,37.85794],[-122.24262,37.85873],[-122.24392,37.85864],[-122.24397,37.85898],[-122.24459,37.85901],[-122.2443,37.86033],[-122.24404,37.86072],[-122.24427,37.86097],[-122.24429,37.86143],[-122.24415,37.8615],[-122.24449,37.86188],[-122.24436,37.86208],[-122.24442,37.86272],[-122.24496,37.86306],[-122.24554,37.86404],[-122.24489,37.86471],[-122.24463,37.86473],[-122.24475,37.86579],[-122.24521,37.8658],[-122.24555,37.86624],[-122.24483,37.86628],[-122.24472,37.86667],[-122.24508,37.86688],[-122.24462,37.86741],[-122.24494,37.86769],[-122.24693,37.88537],[-122.24257,37.88213],[-122.23925,37.88348],[-122.23333,37.88189],[-122.22885,37.88103],[-122.22363,37.87857],[-122.21981,37.87349],[-122.21767,37.87227],[-122.21637,37.86908],[-122.21981,37.86734],[-122.22145,37.86547],[-122.21984,37.86478],[-122.21342,37.85834],[-122.21283,37.85743],[-122.21214,37.85698],[-122.21216,37.85683]]]}},{"type":"Feature","properties":{"school":"FREMONT","level":"high"},"geometry":{"type":"Polygon","coordinates":[[[-122.18798,37.7776],[-122.18537,37.77542],[-122.18757,37.77353],[-122.20557,37.76088],[-122.20684,37.76009],[-122.20821,37.75983],[-122.21238,37.75818],[-122.21283,37.75869],[-122.21487,37.75755],[-122.22333,37.75454],[-122.22423,37.76282],[-122.2253,37.76542],[-122.2266,37.76694],[-122.22866,37.76831],[-122.23778,37.77225],[-122.24163,37.77463],[-122.24355,37.77628],[-122.2449,37.77918],[-122.24502,37.78058],[-122.23811,37.78113],[-122.23729,37.78187],[-122.23746,37.78228],[-122.23703,37.78227],[-122.23516,37.78425],[-122.23252,37.78659],[-122.23211,37.78722],[-122.23197,37.78816],[-122.23164,37.78872],[-122.23023,37.79022],[-122.2292,37.79075],[-122.2285,37.79044],[-122.22839,37.79019],[-122.22647,37.78904],[-122.22378,37.79214],[-122.22141,37.79088],[-122.21868,37.7902],[-122.21843,37.7908],[-122.2163,37.7898],[-122.21252,37.79474],[-122.20702,37.79229],[-122.20549,37.79087],[-122.20863,37.78901],[-122.20253,37.78336],[-122.2018,37.78374],[-122.20055,37.78262],[-122.19902,37.78361],[-122.19599,37.78088],[-122.19352,37.7826],[-122.19243,37.78144],[-122.18798,37.7776]]]}},{"type":"Feature","properties":{"school":"CASTLEMONT/COLISEUM PREP/MADISON","level":"high"},"geometry":{"type":"Polygon","coordinates":[[[-122.14378,37.74001],[-122.14605,37.74276],[-122.14651,37.74247],[-122.14769,37.74114],[-122.16083,37.73748],[-122.16422,37.73591],[-122.16566,37.73781],[-122.17157,37.735],[-122.16976,37.73223],[-122.17051,37.73187],[-122.17424,37.73115],[-122.17033,37.72774],[-122.17066,37.72783],[-122.17063,37.7277],[-122.17131,37.72801],[-122.17201,37.72765],[-122.17272,37.72682],[-122.17435,37.72666],[-122.17546,37.72531],[-122.1779,37.72539],[-122.17915,37.72519],[-122.18,37.72572],[-122.18031,37.72575],[-122.18207,37.72536],[-122.18362,37.72562],[-122.18525,37.72665],[-122.18574,37.72681],[-122.18647,37.72759],[-122.1869,37.72783],[-122.18827,37.72843],[-122.19039,37.72889],[-122.19099,37.72808],[-122.19128,37.72821],[-122.19194,37.72729],[-122.19284,37.7277],[-122.19616,37.72601],[-122.19681,37.72675],[-122.19807,37.72623],[-122.19776,37.72518],[-122.19741,37.72527],[-122.19629,37.72332],[-122.19398,37.72202],[-122.18933,37.71795],[-122.19295,37.7168],[-122.19341,37.71783],[-122.19473,37.71754],[-122.19428,37.71592],[-122.19443,37.71584],[-122.19704,37.71583],[-122.20218,37.71299],[-122.20974,37.71109],[-122.20928,37.71017],[-122.21075,37.70927],[-122.21049,37.70134],[-122.21339,37.69874],[-122.24219,37.71943],[-122.2453,37.71986],[-122.25204,37.72482],[-122.24793,37.72837],[-122.24505,37.7258],[-122.23619,37.71986],[-122.22836,37.72773],[-122.22717,37.72738],[-122.22715,37.72755],[-122.22678,37.72766],[-122.22682,37.7331],[-122.22645,37.73447],[-122.22652,37.74793],[-122.22339,37.74804],[-122.22303,37.75003],[-122.22333,37.75454],[-122.21487,37.75755],[-122.21283,37.75869],[-122.21238,37.75818],[-122.20821,37.75983],[-122.20684,37.76009],[-122.18757,37.77353],[-122.18537,37.77542],[-122.18807,37.77773],[-122.188,37.77806],[-122.18712,37.77872],[-122.18697,37.7799],[-122.18838,37.78421],[-122.1797,37.78411],[-122.17677,37.78368],[-122.17357,37.78146],[-122.16954,37.779],[-122.16765,37.77806],[-122.16382,37.77667],[-122.16422,37.77627],[-122.15859,37.77342],[-122.1561,37.77151],[-122.15488,37.77009],[-122.15243,37.76619],[-122.15013,37.76326],[-122.14872,37.7611],[-122.14807,37.75959],[-122.14798,37.75833],[-122.14838,37.75706],[-122.14902,37.75617],[-122.15125,37.75396],[-122.15173,37.75311],[-122.15196,37.75221],[-122.15195,37.75133],[-122.15165,37.75027],[-122.15128,37.7495],[-122.15105,37.74959],[-122.14919,37.74623],[-122.14879,37.74572],[-122.14763,37.74631],[-122.146,37.74753],[-122.1445,37.74825],[-122.143,37.74933],[-122.14209,37.74824],[-122.14147,37.74872],[-122.14105,37.74784],[-122.14182,37.74734],[-122.14152,37.74677],[-122.14201,37.74669],[-122.14315,37.74606],[-122.14309,37.74571],[-122.14019,37.74455],[-122.13596,37.74317],[-122.14378,37.74001]]]}},{"type":"Feature","properties":{"school":"OAKLAND HIGH","level":"high"},"geometry":{"type":"Polygon","coordinates":[[[-122.21474,37.81269],[-122.21361,37.8123],[-122.21212,37.8114],[-122.21296,37.81066],[-122.21548,37.81053],[-122.21564,37.80725],[-122.21532,37.8068],[-122.21519,37.80623],[-122.21771,37.79952],[-122.21846,37.79913],[-122.21905,37.79916],[-122.21855,37.79904],[-122.21918,37.79838],[-122.21955,37.79572],[-122.21986,37.79485],[-122.22282,37.79533],[-122.22367,37.79287],[-122.22405,37.79229],[-122.22378,37.79214],[-122.22647,37.78904],[-122.22839,37.79019],[-122.2285,37.79044],[-122.22909,37.79078],[-122.23023,37.79022],[-122.23182,37.78847],[-122.23208,37.7873],[-122.23252,37.78659],[-122.23516,37.78425],[-122.23703,37.78227],[-122.23746,37.78228],[-122.23729,37.78187],[-122.23811,37.78113],[-122.24502,37.78058],[-122.24523,37.78304],[-122.24577,37.78394],[-122.24751,37.78525],[-122.25135,37.78689],[-122.25269,37.78699],[-122.25397,37.78678],[-122.25948,37.78472],[-122.25983,37.7847],[-122.26088,37.78482],[-122.26844,37.78787],[-122.26693,37.78909],[-122.26608,37.79013],[-122.26552,37.7903],[-122.26448,37.79109],[-122.26345,37.7909],[-122.26326,37.79141],[-122.26271,37.7921],[-122.26117,37.79366],[-122.2596,37.79632],[-122.25958,37.79795],[-122.25937,37.79898],[-122.25827,37.80001],[-122.25558,37.80036],[-122.25448,37.80252],[-122.25305,37.80413],[-122.25099,37.80552],[-122.25054,37.80524],[-122.25108,37.80441],[-122.25094,37.80415],[-122.24929,37.80481],[-122.24796,37.80554],[-122.24665,37.80661],[-122.24475,37.80902],[-122.24185,37.8083],[-122.24195,37.80854],[-122.24158,37.80841],[-122.24094,37.80929],[-122.23961,37.81047],[-122.23891,37.81211],[-122.23957,37.81269],[-122.23826,37.81349],[-122.23922,37.81406],[-122.23739,37.81578],[-122.2363,37.8165],[-122.23617,37.81677],[-122.23634,37.81718],[-122.22441,37.81434],[-122.22381,37.81434],[-122.22173,37.81367],[-122.21809,37.81302],[-122.21787,37.81283],[-122.21512,37.81227],[-122.21474,37.81269]]]}},{"type":"Feature","properties":{"school":"SKYLINE","level":"high"},"geometry":{"type":"Polygon","coordinates":[[[-122.21199,37.85666],[-122.21043,37.85508],[-122.21086,37.85427],[-122.2089,37.85194],[-122.20314,37.8512],[-122.20076,37.84745],[-122.19867,37.84632],[-122.19512,37.84361],[-122.19506,37.84301],[-122.19538,37.84261],[-122.1956,37.84178],[-122.19525,37.84152],[-122.19446,37.84134],[-122.1938,37.84089],[-122.1937,37.8407],[-122.19391,37.84048],[-122.19369,37.84062],[-122.19208,37.84025],[-122.18876,37.83773],[-122.18693,37.83778],[-122.18513,37.83736],[-122.18384,37.83439],[-122.18477,37.83287],[-122.18524,37.8325],[-122.18672,37.82984],[-122.18711,37.8275],[-122.18574,37.82537],[-122.18688,37.82209],[-122.18559,37.82072],[-122.1836,37.82048],[-122.18121,37.81931],[-122.18037,37.81816],[-122.17549,37.8146],[-122.17417,37.81028],[-122.17588,37.8075],[-122.17778,37.80667],[-122.17918,37.80497],[-122.17821,37.80392],[-122.17697,37.80472],[-122.17533,37.80353],[-122.17597,37.8027],[-122.1684,37.79913],[-122.16841,37.80008],[-122.16854,37.80008],[-122.16862,37.80042],[-122.16842,37.80095],[-122.16856,37.80109],[-122.16906,37.801],[-122.16957,37.80154],[-122.17003,37.80169],[-122.17053,37.80269],[-122.17054,37.80466],[-122.16994,37.80478],[-122.16955,37.80508],[-122.16766,37.80579],[-122.16525,37.80527],[-122.16483,37.80503],[-122.16482,37.80448],[-122.16416,37.80293],[-122.16165,37.80145],[-122.16175,37.80116],[-122.16231,37.80091],[-122.16234,37.80003],[-122.15971,37.80006],[-122.15843,37.79803],[-122.15948,37.79741],[-122.15878,37.79705],[-122.15808,37.79736],[-122.15669,37.79668],[-122.15668,37.79648],[-122.15226,37.79648],[-122.1523,37.79309],[-122.14333,37.79302],[-122.14326,37.79035],[-122.14263,37.79031],[-122.14181,37.78976],[-122.14372,37.7874],[-122.14319,37.78703],[-122.13456,37.77814],[-122.13402,37.77849],[-122.13319,37.77768],[-122.13376,37.77732],[-122.13182,37.77534],[-122.12875,37.7697],[-122.12526,37.76376],[-122.12505,37.76268],[-122.12443,37.76194],[-122.12412,37.76112],[-122.12326,37.76027],[-122.12284,37.7591],[-122.11952,37.75519],[-122.1162,37.75038],[-122.11582,37.74872],[-122.1155,37.74889],[-122.1148,37.74181],[-122.11481,37.74017],[-122.11525,37.73916],[-122.11521,37.73716],[-122.11481,37.73612],[-122.1151,37.73528],[-122.1162,37.73413],[-122.11776,37.73295],[-122.11883,37.73228],[-122.12122,37.73182],[-122.12225,37.73],[-122.12218,37.72939],[-122.12448,37.72859],[-122.12547,37.72976],[-122.13066,37.73013],[-122.13124,37.73043],[-122.13236,37.73173],[-122.13113,37.73227],[-122.1305,37.73278],[-122.13041,37.73343],[-122.13064,37.7337],[-122.13201,37.73367],[-122.13283,37.73399],[-122.13445,37.7343],[-122.13486,37.73431],[-122.13671,37.73186],[-122.13811,37.73101],[-122.13899,37.73093],[-122.14025,37.73603],[-122.14064,37.73702],[-122.14143,37.73806],[-122.14378,37.74001],[-122.13596,37.74317],[-122.14019,37.74455],[-122.14309,37.74571],[-122.14315,37.74606],[-122.14201,37.74669],[-122.14152,37.74677],[-122.14182,37.74734],[-122.14105,37.74784],[-122.14147,37.74872],[-122.14209,37.74824],[-122.143,37.74933],[-122.1445,37.74825],[-122.146,37.74753],[-122.14763,37.74631],[-122.14885,37.74578],[-122.15105,37.74959],[-122.15128,37.7495],[-122.15165,37.75027],[-122.15195,37.75133],[-122.15196,37.75221],[-122.15173,37.75311],[-122.15125,37.75396],[-122.14892,37.75629],[-122.14823,37.75737],[-122.148,37.75817],[-122.14796,37.75898],[-122.14845,37.76058],[-122.1505,37.7638],[-122.15243,37.76619],[-122.15479,37.76998],[-122.156,37.77142],[-122.15846,37.77335],[-122.16422,37.77627],[-122.16382,37.77667],[-122.16765,37.77806],[-122.16954,37.779],[-122.17357,37.78146],[-122.17677,37.78368],[-122.1797,37.78411],[-122.18843,37.7842],[-122.18698,37.77994],[-122.18712,37.77872],[-122.188,37.77806],[-122.18798,37.7776],[-122.19243,37.78144],[-122.19352,37.7826],[-122.19599,37.78088],[-122.19902,37.78361],[-122.20055,37.78262],[-122.2018,37.78374],[-122.20253,37.78336],[-122.20863,37.78901],[-122.20549,37.79087],[-122.20702,37.79229],[-122.21252,37.79474],[-122.2163,37.7898],[-122.21843,37.7908],[-122.21868,37.7902],[-122.22141,37.79088],[-122.22405,37.79229],[-122.22367,37.79287],[-122.22282,37.79533],[-122.21986,37.79485],[-122.21955,37.79572],[-122.21918,37.79838],[-122.21855,37.79904],[-122.21905,37.79916],[-122.21846,37.79913],[-122.21771,37.79952],[-122.21519,37.80623],[-122.21532,37.8068],[-122.21564,37.80725],[-122.21548,37.81053],[-122.21296,37.81066],[-122.21212,37.8114],[-122.21361,37.8123],[-122.21474,37.81269],[-122.21411,37.81316],[-122.21321,37.81451],[-122.21308,37.81523],[-122.21319,37.81579],[-122.21277,37.81613],[-122.21284,37.81641],[-122.21263,37.81648],[-122.21182,37.81748],[-122.2102,37.81862],[-122.2172,37.82301],[-122.21906,37.8243],[-122.21909,37.82453],[-122.21966,37.82452],[-122.2201,37.82501],[-122.22072,37.82537],[-122.22174,37.82674],[-122.22163,37.82681],[-122.22224,37.82728],[-122.2221,37.82756],[-122.22238,37.82757],[-122.22221,37.8282],[-122.22266,37.82884],[-122.22385,37.8295],[-122.22492,37.83087],[-122.22639,37.83199],[-122.22727,37.83287],[-122.2278,37.83368],[-122.23192,37.83647],[-122.23321,37.8376],[-122.23016,37.8388],[-122.22964,37.8386],[-122.22911,37.83903],[-122.22901,37.83933],[-122.22919,37.84006],[-122.23063,37.84103],[-122.2307,37.84151],[-122.2293,37.84214],[-122.22919,37.84244],[-122.22864,37.84247],[-122.22783,37.84288],[-122.22711,37.84288],[-122.22477,37.84167],[-122.22651,37.84384],[-122.22762,37.84552],[-122.23069,37.8487],[-122.22689,37.84808],[-122.22571,37.84815],[-122.22464,37.84846],[-122.22367,37.849],[-122.22295,37.84969],[-122.22254,37.85035],[-122.22188,37.85215],[-122.22128,37.85284],[-122.21942,37.85394],[-122.21818,37.85408],[-122.21731,37.85438],[-122.21418,37.85612],[-122.21409,37.85577],[-122.21216,37.85683],[-122.21199,37.85666]]]}},{"type":"Feature","properties":{"school":"MCCLYMONDS","level":"high"},"geometry":{"type":"Polygon","coordinates":[[[-122.27758,37.83122],[-122.26843,37.82979],[-122.27277,37.81255],[-122.27298,37.81188],[-122.27341,37.81138],[-122.27327,37.81053],[-122.28216,37.79627],[-122.28317,37.79525],[-122.28414,37.7936],[-122.28607,37.79364],[-122.28885,37.79329],[-122.29599,37.79194],[-122.30105,37.79196],[-122.30668,37.79276],[-122.32782,37.79734],[-122.34053,37.80167],[-122.3437,37.8064],[-122.3336,37.81239],[-122.32314,37.81132],[-122.31823,37.81721],[-122.32222,37.81995],[-122.3308,37.81892],[-122.33198,37.82081],[-122.33062,37.82318],[-122.32233,37.82432],[-122.31884,37.82594],[-122.31709,37.82943],[-122.31059,37.8292],[-122.3042,37.82739],[-122.30027,37.82835],[-122.29822,37.83095],[-122.29738,37.83108],[-122.29742,37.8313],[-122.29448,37.83056],[-122.29353,37.83069],[-122.29063,37.83012],[-122.29052,37.82979],[-122.28996,37.82989],[-122.28879,37.82956],[-122.28868,37.82924],[-122.2876,37.82947],[-122.28741,37.82922],[-122.28254,37.82808],[-122.28235,37.82758],[-122.28112,37.82743],[-122.28091,37.82771],[-122.28024,37.82754],[-122.28018,37.8277],[-122.28007,37.82768],[-122.28013,37.82752],[-122.27795,37.82707],[-122.27788,37.82733],[-122.27848,37.82887],[-122.27758,37.83122]]]}}]}