{"type":"FeatureCollection","features":[{"type":"Feature","properties":{"school":"BRET HARTE","level":"middle"},"geometry":{"type":"Polygon","coordinates":[[[-122.16807,37.78263],[-122.17205,37.78076],[-122.17714,37.77996],[-122.18029,37.77976],[-122.1808,37.77944],[-122.18241,37.7776],[-122.18396,37.77652],[-122.18461,37.77625],[-122.18537,37.77542],[-122.18807,37.77773],[-122.188,37.77806],[-122.18712,37.77872],[-122.18697,37.7799],[-122.18832,37.78389],[-122.18881,37.78385],[-122.19178,37.78464],[-122.19603,37.78674],[-122.19623,37.78663],[-122.19506,37.786],[-122.19902,37.78361],[-122.19599,37.78088],[-122.19949,37.77839],[-122.20413,37.78254],[-122.20471,37.782],[-122.20629,37.78318],[-122.20826,37.78497],[-122.20572,37.78625],[-122.20863,37.78901],[-122.20981,37.78832],[-122.21161,37.79026],[-122.21044,37.7908],[-122.21421,37.79254],[-122.2163,37.7898],[-122.21843,37.7908],[-122.21868,37.7902],[-122.22141,37.79088],[-122.22405,37.79229],[-122.22367,37.79287],[-122.22282,37.79533],[-122.21988,37.79486],[-122.21955,37.79572],[-122.21918,37.79838],[-122.21855,37.79904],[-122.21905,37.79916],[-122.21846,37.79913],[-122.21771,37.79952],[-122.21601,37.80394],[-122.21364,37.80359],[-122.21301,37.80471],[-122.21237,37.80542],[-122.21185,37.80575],[-122.21073,37.80696],[-122.20655,37.81007],[-122.20617,37.81064],[-122.20612,37.81115],[-122.20563,37.81127],[-122.20491,37.81194],[-122.20447,37.81196],[-122.20419,37.81142],[-122.20376,37.8111],[-122.2028,37.81077],[-122.20164,37.81137],[-122.20055,37.81124],[-122.19995,37.81153],[-122.19901,37.8104],[-122.19899,37.81016],[-122.19838,37.8102],[-122.19802,37.80978],[-122.19766,37.80847],[-122.19737,37.80842],[-122.19715,37.80857],[-122.19725,37.80936],[-122.19704,37.8097],[-122.1957,37.80878],[-122.19535,37.80819],[-122.19501,37.8082],[-122.1945,37.80779],[-122.19021,37.80286],[-122.18756,37.80066],[-122.18575,37.7989],[-122.1831,37.79554],[-122.18201,37.79388],[-122.1816,37.79429],[-122.18121,37.79413],[-122.18097,37.79345],[-122.17967,37.79176],[-122.17989,37.79054],[-122.17904,37.78983],[-122.1771,37.78741],[-122.17716,37.78666],[-122.17822,37.78478],[-122.17749,37.78402],[-122.17574,37.78267],[-122.17554,37.78328],[-122.17481,37.78382],[-122.17622,37.78408],[-122.17646,37.78432],[-122.17653,37.78472],[-122.17623,37.78516],[-122.17557,37.78558],[-122.17549,37.78585],[-122.1744,37.78706],[-122.17053,37.78547],[-122.16807,37.78263]]]}},{"type":"Feature","properties":{"school":"COLISEUM PREP/GREENLEAF/LIFE","level":"middle"},"geometry":{"type":"Polygon","coordinates":[[[-122.21064,37.77143],[-122.20991,37.77163],[-122.21005,37.77145],[-122.20952,37.7712],[-122.20945,37.77132],[-122.20753,37.77035],[-122.20786,37.76991],[-122.20695,37.76956],[-122.20666,37.76995],[-122.20623,37.76974],[-122.20482,37.77161],[-122.20331,37.77089],[-122.19832,37.77091],[-122.19808,37.77108],[-122.19499,37.76832],[-122.19511,37.76822],[-122.19215,37.76545],[-122.19167,37.76575],[-122.18992,37.76405],[-122.18737,37.76581],[-122.18542,37.76382],[-122.18445,37.76362],[-122.18283,37.76204],[-122.18256,37.76221],[-122.17856,37.75812],[-122.17576,37.75439],[-122.17738,37.75364],[-122.17839,37.75499],[-122.17912,37.75541],[-122.18382,37.75313],[-122.18274,37.75173],[-122.18429,37.75101],[-122.18479,37.75162],[-122.18663,37.7505],[-122.1855,37.74908],[-122.18874,37.7473],[-122.1907,37.74586],[-122.19198,37.74185],[-122.19264,37.7421],[-122.19477,37.74394],[-122.19521,37.74411],[-122.19544,37.74453],[-122.19598,37.74471],[-122.19639,37.73947],[-122.19701,37.73626],[-122.19914,37.73158],[-122.20135,37.72759],[-122.20165,37.72653],[-122.19973,37.72578],[-122.19675,37.72413],[-122.19629,37.72332],[-122.19398,37.72202],[-122.18933,37.71795],[-122.19295,37.7168],[-122.19341,37.71783],[-122.19473,37.71754],[-122.19428,37.71592],[-122.19443,37.71584],[-122.19704,37.71583],[-122.20218,37.71299],[-122.20974,37.71109],[-122.20928,37.71017],[-122.21075,37.70927],[-122.21049,37.70134],[-122.21339,37.69874],[-122.24219,37.71943],[-122.2453,37.71986],[-122.25204,37.72482],[-122.24793,37.72837],[-122.24505,37.7258],[-122.23619,37.71986],[-122.22836,37.72773],[-122.22717,37.72738],[-122.22715,37.72755],[-122.22678,37.72766],[-122.22682,37.7331],[-122.22645,37.73447],[-122.22652,37.74793],[-122.22339,37.74804],[-122.22303,37.75003],[-122.22347,37.75666],[-122.22376,37.75823],[-122.22395,37.76084],[-122.22423,37.76282],[-122.22493,37.76459],[-122.22313,37.7661],[-122.21352,37.77336],[-122.21031,37.77188],[-122.21064,37.77143]]]}},{"type":"Feature","properties":{"school":"CLAREMONT","level":"middle"},"geometry":{"type":"Polygon","coordinates":[[[-122.24507,37.88393],[-122.24257,37.88213],[-122.23925,37.88348],[-122.23333,37.88189],[-122.22885,37.88103],[-122.22363,37.87857],[-122.21981,37.87349],[-122.21767,37.87226],[-122.21637,37.86908],[-122.2198,37.86734],[-122.22145,37.86547],[-122.21984,37.86478],[-122.21342,37.85834],[-122.21283,37.85743],[-122.21206,37.8569],[-122.21409,37.85577],[-122.21418,37.85612],[-122.21741,37.85434],[-122.21952,37.8539],[-122.22128,37.85284],[-122.22191,37.8521],[-122.22286,37.84981],[-122.22352,37.84911],[-122.22446,37.84853],[-122.22639,37.84808],[-122.23069,37.8487],[-122.23411,37.84818],[-122.23513,37.8482],[-122.23512,37.84757],[-122.23531,37.84701],[-122.23631,37.84671],[-122.23692,37.84693],[-122.23713,37.84672],[-122.23705,37.84619],[-122.23653,37.84572],[-122.23702,37.84572],[-122.23736,37.84532],[-122.23758,37.84452],[-122.23736,37.84372],[-122.23752,37.84341],[-122.2386,37.8436],[-122.23912,37.84401],[-122.23955,37.84409],[-122.24221,37.84366],[-122.24353,37.84301],[-122.24352,37.84219],[-122.24286,37.84092],[-122.24291,37.84009],[-122.2424,37.83961],[-122.2278,37.83368],[-122.227,37.83261],[-122.22729,37.83282],[-122.22753,37.83268],[-122.22729,37.83238],[-122.22776,37.83234],[-122.22916,37.83315],[-122.23081,37.83272],[-122.23076,37.83256],[-122.2314,37.83145],[-122.23227,37.83133],[-122.23251,37.8317],[-122.23522,37.83115],[-122.23535,37.83148],[-122.23714,37.83104],[-122.23706,37.8308],[-122.23777,37.83063],[-122.24096,37.83045],[-122.24295,37.83],[-122.24309,37.83002],[-122.24302,37.83043],[-122.2467,37.83324],[-122.24891,37.83154],[-122.24947,37.83209],[-122.25043,37.83354],[-122.25236,37.83444],[-122.25439,37.83125],[-122.264,37.83087],[-122.27695,37.83292],[-122.27562,37.83643],[-122.27639,37.83694],[-122.27695,37.83688],[-122.27715,37.83708],[-122.27808,37.83692],[-122.27883,37.83725],[-122.2817,37.83669],[-122.28187,37.83719],[-122.2845,37.83672],[-122.28814,37.84802],[-122.28842,37.84796],[-122.28855,37.84837],[-122.28827,37.84843],[-122.28875,37.84999],[-122.28616,37.85054],[-122.28605,37.85017],[-122.28359,37.85065],[-122.28321,37.84934],[-122.2831,37.84937],[-122.28298,37.84901],[-122.28248,37.84912],[-122.28219,37.84831],[-122.282,37.84835],[-122.28188,37.84778],[-122.28206,37.84776],[-122.28191,37.84698],[-122.2762,37.84774],[-122.27581,37.84587],[-122.26916,37.84675],[-122.26952,37.84859],[-122.26841,37.84877],[-122.26898,37.85165],[-122.26397,37.85232],[-122.26394,37.85217],[-122.26362,37.8523],[-122.26364,37.85252],[-122.26226,37.85269],[-122.26224,37.85254],[-122.25845,37.85318],[-122.25822,37.85306],[-122.25722,37.85318],[-122.25725,37.85332],[-122.25398,37.85375],[-122.25396,37.85362],[-122.25346,37.85368],[-122.2535,37.85381],[-122.25335,37.85383],[-122.25293,37.85078],[-122.2511,37.85124],[-122.25091,37.85113],[-122.2507,37.85139],[-122.25005,37.85142],[-122.24999,37.85129],[-122.24739,37.85166],[-122.2466,37.85158],[-122.245,37.85172],[-122.24493,37.85189],[-122.24479,37.85174],[-122.23442,37.85236],[-122.23428,37.85247],[-122.23477,37.8578],[-122.23673,37.85757],[-122.23811,37.85756],[-122.23818,37.8577],[-122.23893,37.85755],[-122.23912,37.85773],[-122.23944,37.85751],[-122.23974,37.85757],[-122.24038,37.8573],[-122.24055,37.85755],[-122.24123,37.8574],[-122.24117,37.85727],[-122.24166,37.85706],[-122.24178,37.85725],[-122.2415,37.85738],[-122.24185,37.85735],[-122.24273,37.85794],[-122.24253,37.85794],[-122.24262,37.85873],[-122.24392,37.85864],[-122.24397,37.85897],[-122.24459,37.85901],[-122.2443,37.86033],[-122.24404,37.86071],[-122.24427,37.86097],[-122.24429,37.86143],[-122.24415,37.8615],[-122.24449,37.86188],[-122.24436,37.86208],[-122.24442,37.86272],[-122.24496,37.86306],[-122.24554,37.86404],[-122.24489,37.86471],[-122.24463,37.86473],[-122.24475,37.86579],[-122.2452,37.8658],[-122.24555,37.86624],[-122.24483,37.86628],[-122.24472,37.86667],[-122.24508,37.86688],[-122.24462,37.86741],[-122.24494,37.86769],[-122.24693,37.88537],[-122.24507,37.88393]]]}},{"type":"Feature","properties":{"school":"EDNA M BREWER","level":"middle"},"geometry":{"type":"Polygon","coordinates":[[[-122.23571,37.81699],[-122.23524,37.81702],[-122.23511,37.81684],[-122.23395,37.81665],[-122.23393,37.81653],[-122.23352,37.81656],[-122.22779,37.81525],[-122.22441,37.81434],[-122.22381,37.81434],[-122.22173,37.81367],[-122.21809,37.81302],[-122.21787,37.81283],[-122.21512,37.81227],[-122.21474,37.81269],[-122.2115,37.81127],[-122.20988,37.81164],[-122.2085,37.81078],[-122.20798,37.81089],[-122.20753,37.81067],[-122.20679,37.81079],[-122.20628,37.81117],[-122.20612,37.81115],[-122.20613,37.81075],[-122.20655,37.81007],[-122.21073,37.80696],[-122.21185,37.80575],[-122.21237,37.80542],[-122.21301,37.80471],[-122.21364,37.80359],[-122.21601,37.80394],[-122.21771,37.79952],[-122.21846,37.79913],[-122.21905,37.79916],[-122.21855,37.79904],[-122.21918,37.79838],[-122.21955,37.79572],[-122.21988,37.79486],[-122.22282,37.79533],[-122.22367,37.79287],[-122.22405,37.79229],[-122.22609,37.79342],[-122.22672,37.79356],[-122.22612,37.79547],[-122.22769,37.79579],[-122.23062,37.79755],[-122.2332,37.79663],[-122.23601,37.79842],[-122.23705,37.79712],[-122.23796,37.79646],[-122.24045,37.79867],[-122.24422,37.79601],[-122.24664,37.7982],[-122.24849,37.79692],[-122.25159,37.79951],[-122.25442,37.80055],[-122.25433,37.80203],[-122.25306,37.80393],[-122.25108,37.80441],[-122.25094,37.80415],[-122.24929,37.80481],[-122.24796,37.80554],[-122.24665,37.80661],[-122.24475,37.80902],[-122.24185,37.8083],[-122.24195,37.80854],[-122.24158,37.80841],[-122.24094,37.80929],[-122.2395,37.81045],[-122.23929,37.81138],[-122.23891,37.81211],[-122.23957,37.81269],[-122.23826,37.81349],[-122.23922,37.81406],[-122.23739,37.81578],[-122.2363,37.8165],[-122.23617,37.81677],[-122.23634,37.81718],[-122.23571,37.81699]]]}},{"type":"Feature","properties":{"school":"ELMHURST UNITED","level":"middle"},"geometry":{"type":"Polygon","coordinates":[[[-122.12912,37.76943],[-122.12864,37.76952],[-122.12723,37.76729],[-122.12526,37.76376],[-122.12501,37.76261],[-122.12443,37.76194],[-122.12403,37.76099],[-122.12322,37.76021],[-122.12287,37.75915],[-122.1193,37.75488],[-122.1162,37.75038],[-122.11582,37.74872],[-122.1155,37.74889],[-122.1148,37.74181],[-122.11481,37.74017],[-122.11525,37.73916],[-122.11521,37.73716],[-122.11481,37.73612],[-122.1151,37.73528],[-122.1162,37.73413],[-122.11883,37.73228],[-122.12122,37.73182],[-122.12225,37.73],[-122.12218,37.72939],[-122.12239,37.72941],[-122.12294,37.72905],[-122.12448,37.72859],[-122.12547,37.72976],[-122.13066,37.73013],[-122.13124,37.73043],[-122.13236,37.73173],[-122.13113,37.73227],[-122.1305,37.73278],[-122.13041,37.73343],[-122.13064,37.7337],[-122.13201,37.73367],[-122.13283,37.73399],[-122.13445,37.7343],[-122.13486,37.73431],[-122.13671,37.73186],[-122.13811,37.73101],[-122.13899,37.73093],[-122.14025,37.73603],[-122.14064,37.73702],[-122.14143,37.73806],[-122.14398,37.74022],[-122.14605,37.74276],[-122.14651,37.74247],[-122.14769,37.74114],[-122.16083,37.73748],[-122.16422,37.73591],[-122.16566,37.73781],[-122.17152,37.73493],[-122.17421,37.73841],[-122.17986,37.74446],[-122.18085,37.74398],[-122.1815,37.74484],[-122.1819,37.74466],[-122.18663,37.7505],[-122.18479,37.75162],[-122.18429,37.75101],[-122.18274,37.75173],[-122.18382,37.75313],[-122.17912,37.75541],[-122.17839,37.75499],[-122.17738,37.75364],[-122.16697,37.75849],[-122.16551,37.75652],[-122.16587,37.75635],[-122.16432,37.75425],[-122.16137,37.75561],[-122.1598,37.75133],[-122.15722,37.74738],[-122.15141,37.7489],[-122.13841,37.75495],[-122.13915,37.75549],[-122.13987,37.75663],[-122.14087,37.75749],[-122.14093,37.75781],[-122.14182,37.75746],[-122.14182,37.75803],[-122.1425,37.75893],[-122.142,37.75938],[-122.14208,37.76006],[-122.14129,37.76154],[-122.14128,37.76201],[-122.13893,37.76189],[-122.13803,37.7614],[-122.13717,37.76065],[-122.13665,37.76048],[-122.13628,37.76052],[-122.13625,37.76084],[-122.13575,37.76155],[-122.13379,37.76179],[-122.13261,37.76165],[-122.13176,37.76175],[-122.13145,37.76105],[-122.13096,37.76077],[-122.13072,37.76015],[-122.12943,37.7602],[-122.12922,37.76056],[-122.12899,37.76173],[-122.1291,37.76206],[-122.12944,37.76211],[-122.12986,37.76281],[-122.13037,37.7643],[-122.13035,37.76506],[-122.12998,37.76504],[-122.13007,37.76551],[-122.12993,37.76609],[-122.13109,37.76646],[-122.13117,37.76675],[-122.131,37.76749],[-122.1316,37.76807],[-122.13199,37.769],[-122.13331,37.76995],[-122.13339,37.77036],[-122.13311,37.77096],[-122.1315,37.77084],[-122.13073,37.77049],[-122.12988,37.76964],[-122.12912,37.76943]]]}},{"type":"Feature","properties":{"school":"FRICK","level":"middle"},"geometry":{"type":"Polygon","coordinates":[[[-122.16807,37.78263],[-122.16635,37.78065],[-122.15433,37.77609],[-122.15152,37.77229],[-122.15136,37.77227],[-122.15117,37.77251],[-122.15062,37.77227],[-122.14757,37.77451],[-122.14721,37.77441],[-122.14673,37.77481],[-122.1467,37.77499],[-122.14632,37.775],[-122.14558,37.77481],[-122.14504,37.77442],[-122.14479,37.77397],[-122.14464,37.77311],[-122.14371,37.77304],[-122.1421,37.77241],[-122.14134,37.77186],[-122.14001,37.77045],[-122.13842,37.76959],[-122.13709,37.76955],[-122.13546,37.77014],[-122.13411,37.77087],[-122.13311,37.77096],[-122.13339,37.77036],[-122.13331,37.76995],[-122.13199,37.769],[-122.1316,37.76807],[-122.131,37.76749],[-122.13117,37.76675],[-122.13109,37.76646],[-122.12993,37.76609],[-122.13007,37.76551],[-122.12998,37.76504],[-122.13035,37.76506],[-122.13037,37.7643],[-122.12986,37.76281],[-122.12944,37.76211],[-122.1291,37.76206],[-122.12899,37.76173],[-122.12922,37.76056],[-122.12943,37.7602],[-122.13072,37.76015],[-122.13096,37.76077],[-122.13145,37.76105],[-122.13176,37.76175],[-122.13261,37.76165],[-122.13379,37.76179],[-122.13575,37.76155],[-122.13625,37.76084],[-122.13628,37.76052],[-122.13665,37.76048],[-122.13717,37.76065],[-122.13803,37.7614],[-122.13893,37.76189],[-122.14128,37.76201],[-122.14129,37.76154],[-122.14208,37.76006],[-122.142,37.75938],[-122.1425,37.75893],[-122.14182,37.75803],[-122.14182,37.75746],[-122.14093,37.75781],[-122.14087,37.75749],[-122.13987,37.75663],[-122.13915,37.75549],[-122.13841,37.75495],[-122.15141,37.7489],[-122.15722,37.74738],[-122.1598,37.75133],[-122.16137,37.75561],[-122.16432,37.75425],[-122.16587,37.75635],[-122.16551,37.75652],[-122.16697,37.75849],[-122.17576,37.75439],[-122.17856,37.75812],[-122.18049,37.75997],[-122.1807,37.7604],[-122.18256,37.76221],[-122.18283,37.76204],[-122.18445,37.76362],[-122.18542,37.76382],[-122.18737,37.76581],[-122.18992,37.76405],[-122.19167,37.76575],[-122.19215,37.76545],[-122.19511,37.76822],[-122.19499,37.76832],[-122.19808,37.77108],[-122.19832,37.77091],[-122.20331,37.77089],[-122.20515,37.77179],[-122.20697,37.7718],[-122.2036,37.77636],[-122.20155,37.77693],[-122.19599,37.78088],[-122.19902,37.78361],[-122.19506,37.786],[-122.19623,37.78663],[-122.19603,37.78674],[-122.19178,37.78464],[-122.18881,37.78385],[-122.18832,37.78389],[-122.18697,37.7799],[-122.18712,37.77872],[-122.188,37.77806],[-122.18807,37.77773],[-122.18537,37.77542],[-122.18461,37.77625],[-122.18396,37.77652],[-122.18241,37.7776],[-122.1808,37.77944],[-122.18029,37.77976],[-122.17714,37.77996],[-122.17205,37.78076],[-122.16807,37.78263]]]}},{"type":"Feature","properties":{"school":"HILLCREST","level":"middle"},"geometry":{"type":"Polygon","coordinates":[[[-122.23067,37.84869],[-122.22762,37.84552],[-122.22651,37.84384],[-122.22477,37.84167],[-122.22398,37.84135],[-122.22355,37.84052],[-122.22296,37.83988],[-122.22269,37.8392],[-122.22213,37.83853],[-122.21952,37.83638],[-122.21633,37.83225],[-122.21835,37.83288],[-122.22158,37.8326],[-122.22205,37.83227],[-122.22244,37.83136],[-122.22297,37.83065],[-122.22444,37.83024],[-122.22492,37.83087],[-122.22639,37.83199],[-122.22728,37.83288],[-122.2278,37.83368],[-122.2424,37.83961],[-122.24286,37.84001],[-122.24287,37.84099],[-122.24359,37.84246],[-122.24359,37.84289],[-122.24339,37.84316],[-122.24221,37.84366],[-122.23955,37.84409],[-122.23912,37.84401],[-122.2386,37.8436],[-122.23755,37.8434],[-122.23736,37.84366],[-122.23758,37.84445],[-122.23736,37.84532],[-122.23702,37.84572],[-122.23653,37.84572],[-122.23707,37.84623],[-122.23713,37.84672],[-122.23692,37.84693],[-122.23631,37.84671],[-122.23531,37.84701],[-122.23512,37.84757],[-122.23513,37.8482],[-122.2342,37.84817],[-122.23067,37.84869]]]}},{"type":"Feature","properties":{"school":"MADISON UPPER","level":"middle"},"geometry":{"type":"Polygon","coordinates":[[[-122.18195,37.74472],[-122.1815,37.74484],[-122.18085,37.74398],[-122.17986,37.74446],[-122.17421,37.73841],[-122.17152,37.73493],[-122.16976,37.73223],[-122.17051,37.73187],[-122.17424,37.73115],[-122.17033,37.72774],[-122.17066,37.72783],[-122.17063,37.7277],[-122.17131,37.72801],[-122.17168,37.7279],[-122.17272,37.72682],[-122.17435,37.72666],[-122.17536,37.72539],[-122.1757,37.72526],[-122.1779,37.72539],[-122.17915,37.72519],[-122.18,37.72572],[-122.18031,37.72575],[-122.18118,37.72546],[-122.1824,37.72537],[-122.18384,37.72568],[-122.18525,37.72665],[-122.18574,37.72681],[-122.18647,37.72759],[-122.1869,37.72783],[-122.18827,37.72843],[-122.19039,37.72889],[-122.19099,37.72808],[-122.19128,37.72821],[-122.19194,37.72729],[-122.19284,37.7277],[-122.19616,37.72601],[-122.19681,37.72675],[-122.19807,37.72623],[-122.19776,37.72518],[-122.19741,37.72527],[-122.19675,37.72413],[-122.19973,37.72578],[-122.20165,37.72653],[-122.20135,37.72759],[-122.19914,37.73158],[-122.19701,37.73626],[-122.19639,37.73947],[-122.19598,37.74471],[-122.19544,37.74453],[-122.19521,37.74411],[-122.19477,37.74394],[-122.19264,37.7421],[-122.19198,37.74185],[-122.1907,37.74586],[-122.18874,37.7473],[-122.1855,37.74908],[-122.18195,37.74472]]]}},{"type":"Feature","properties":{"school":"MONTERA","level":"middle"},"geometry":{"type":"Polygon","coordinates":[[[-122.21199,37.85666],[-122.21043,37.85508],[-122.21086,37.85427],[-122.2089,37.85194],[-122.20314,37.8512],[-122.20076,37.84745],[-122.19867,37.84632],[-122.19512,37.84361],[-122.19506,37.84301],[-122.19538,37.84261],[-122.1956,37.84178],[-122.19525,37.84152],[-122.19446,37.84134],[-122.1938,37.84089],[-122.1937,37.8407],[-122.19391,37.84048],[-122.19369,37.84062],[-122.19208,37.84025],[-122.18876,37.83773],[-122.18693,37.83778],[-122.18513,37.83736],[-122.18384,37.83439],[-122.18477,37.83287],[-122.18524,37.8325],[-122.18672,37.82984],[-122.18711,37.8275],[-122.18574,37.82537],[-122.18688,37.82209],[-122.18559,37.82072],[-122.1836,37.82048],[-122.18121,37.81931],[-122.18037,37.81816],[-122.17549,37.8146],[-122.17417,37.81028],[-122.17588,37.8075],[-122.17778,37.80667],[-122.17918,37.80497],[-122.17821,37.80392],[-122.17697,37.80472],[-122.17533,37.80353],[-122.17597,37.8027],[-122.1684,37.79913],[-122.16841,37.80008],[-122.16854,37.80008],[-122.16862,37.80042],[-122.16842,37.80095],[-122.16856,37.80109],[-122.16906,37.801],[-122.16957,37.80154],[-122.17003,37.80169],[-122.17053,37.80269],[-122.17054,37.80466],[-122.16994,37.80478],[-122.16955,37.80508],[-122.16766,37.80579],[-122.16525,37.80527],[-122.16483,37.80503],[-122.16482,37.80448],[-122.16416,37.80293],[-122.16165,37.80145],[-122.16175,37.80116],[-122.16231,37.80091],[-122.16234,37.80003],[-122.15971,37.80006],[-122.15843,37.79803],[-122.15948,37.79741],[-122.15878,37.79705],[-122.15808,37.79736],[-122.15669,37.79668],[-122.15668,37.79648],[-122.15226,37.79648],[-122.1523,37.79309],[-122.14333,37.79302],[-122.14326,37.79035],[-122.14263,37.79031],[-122.14181,37.78976],[-122.14372,37.7874],[-122.14319,37.78703],[-122.13456,37.77814],[-122.13402,37.77849],[-122.13319,37.77768],[-122.13376,37.77732],[-122.13182,37.77534],[-122.12864,37.76952],[-122.12914,37.76943],[-122.12975,37.76957],[-122.13069,37.77046],[-122.13131,37.77079],[-122.13334,37.77097],[-122.13411,37.77087],[-122.13546,37.77014],[-122.13709,37.76955],[-122.13842,37.76959],[-122.14001,37.77045],[-122.14134,37.77186],[-122.1421,37.77241],[-122.14371,37.77304],[-122.14464,37.77311],[-122.14479,37.77397],[-122.14504,37.77442],[-122.14553,37.77479],[-122.1462,37.77499],[-122.1467,37.77499],[-122.14673,37.77481],[-122.14721,37.77441],[-122.14757,37.77451],[-122.15062,37.77227],[-122.15117,37.77251],[-122.15136,37.77227],[-122.15152,37.77229],[-122.15433,37.77609],[-122.16635,37.78065],[-122.17053,37.78547],[-122.1744,37.78706],[-122.17549,37.78585],[-122.17557,37.78558],[-122.17623,37.78516],[-122.17653,37.78472],[-122.17646,37.78432],[-122.17622,37.78408],[-122.17481,37.78382],[-122.17554,37.78328],[-122.17574,37.78267],[-122.17743,37.78398],[-122.17822,37.78478],[-122.17716,37.78666],[-122.17708,37.78736],[-122.17904,37.78983],[-122.17989,37.79054],[-122.17967,37.79176],[-122.18097,37.79345],[-122.18121,37.79413],[-122.1816,37.79429],[-122.18201,37.79388],[-122.1831,37.79554],[-122.18575,37.7989],[-122.18756,37.80066],[-122.19013,37.80278],[-122.19352,37.8068],[-122.19486,37.8081],[-122.19535,37.80819],[-122.19599,37.80902],[-122.19704,37.8097],[-122.19725,37.80936],[-122.19715,37.80857],[-122.19737,37.80842],[-122.19766,37.80847],[-122.19802,37.80978],[-122.19838,37.8102],[-122.19899,37.81016],[-122.19901,37.8104],[-122.19995,37.81153],[-122.20055,37.81124],[-122.20164,37.81137],[-122.2028,37.81077],[-122.20376,37.8111],[-122.20419,37.81142],[-122.20447,37.81196],[-122.20473,37.81197],[-122.20513,37.8118],[-122.20576,37.81121],[-122.20632,37.81116],[-122.20667,37.81083],[-122.20753,37.81067],[-122.20798,37.81089],[-122.20855,37.8108],[-122.20982,37.81164],[-122.21113,37.81126],[-122.21158,37.81129],[-122.21474,37.81269],[-122.21411,37.81316],[-122.21321,37.81451],[-122.21308,37.81523],[-122.21319,37.81579],[-122.21277,37.81613],[-122.21284,37.81641],[-122.21263,37.81648],[-122.21182,37.81748],[-122.2102,37.81862],[-122.2172,37.82301],[-122.21906,37.8243],[-122.21909,37.82453],[-122.21966,37.82452],[-122.2201,37.82501],[-122.22072,37.82537],[-122.22174,37.82674],[-122.22163,37.82681],[-122.22224,37.82728],[-122.2221,37.82756],[-122.22238,37.82757],[-122.2222,37.82817],[-122.22264,37.82882],[-122.22385,37.8295],[-122.22444,37.83024],[-122.22297,37.83065],[-122.22244,37.83136],[-122.22205,37.83227],[-122.22158,37.8326],[-122.21835,37.83288],[-122.21633,37.83225],[-122.21952,37.83638],[-122.22213,37.83853],[-122.22269,37.8392],[-122.22296,37.83988],[-122.22355,37.84052],[-122.22398,37.84135],[-122.22477,37.84167],[-122.22651,37.84384],[-122.22762,37.84552],[-122.23069,37.8487],[-122.22689,37.84808],[-122.22571,37.84815],[-122.22464,37.84846],[-122.22367,37.849],[-122.22295,37.84969],[-122.22254,37.85035],[-122.22188,37.85215],[-122.22128,37.85284],[-122.21942,37.85394],[-122.21818,37.85408],[-122.21731,37.85438],[-122.21418,37.85612],[-122.21409,37.85577],[-122.21216,37.85683],[-122.21199,37.85666]]]}},{"type":"Feature","properties":{"school":"ROOSEVELT","level":"middle"},"geometry":{"type":"Polygon","coordinates":[[[-122.22405,37.79229],[-122.22378,37.79214],[-122.22652,37.78899],[-122.22719,37.78767],[-122.22894,37.78581],[-122.22953,37.7861],[-122.23177,37.7835],[-122.23215,37.78373],[-122.23372,37.78207],[-122.23385,37.78215],[-122.23463,37.78133],[-122.23333,37.78053],[-122.23146,37.77894],[-122.23019,37.7782],[-122.23657,37.77173],[-122.23929,37.77308],[-122.24067,37.77398],[-122.24355,37.77628],[-122.2449,37.77918],[-122.24523,37.78304],[-122.24577,37.78394],[-122.2466,37.78468],[-122.24854,37.78578],[-122.25135,37.78689],[-122.25269,37.78699],[-122.25418,37.7867],[-122.25322,37.78867],[-122.25212,37.79018],[-122.2551,37.7911],[-122.25599,37.79159],[-122.24671,37.79818],[-122.24409,37.79601],[-122.24045,37.79867],[-122.23796,37.79646],[-122.23705,37.79712],[-122.23601,37.79842],[-122.2332,37.79663],[-122.23062,37.79755],[-122.22769,37.79579],[-122.22612,37.79547],[-122.22672,37.79356],[-122.22609,37.79342],[-122.22405,37.79229]]]}},{"type":"Feature","properties":{"school":"UNITED FOR SUCCESS/URBAN PROMISE/LIFE","level":"middle"},"geometry":{"type":"Polygon","coordinates":[[[-122.19949,37.77839],[-122.20155,37.77693],[-122.20368,37.77628],[-122.20698,37.77194],[-122.20697,37.7718],[-122.20515,37.77179],[-122.20482,37.77161],[-122.20623,37.76974],[-122.20666,37.76995],[-122.20695,37.76956],[-122.20786,37.76991],[-122.20753,37.77035],[-122.20945,37.77132],[-122.20952,37.7712],[-122.21005,37.77145],[-122.20991,37.77163],[-122.21069,37.77137],[-122.21031,37.77188],[-122.21352,37.77336],[-122.22313,37.7661],[-122.22493,37.76459],[-122.2253,37.76542],[-122.2266,37.76694],[-122.22866,37.76831],[-122.23657,37.77173],[-122.23019,37.7782],[-122.23146,37.77894],[-122.23333,37.78053],[-122.23463,37.78133],[-122.23385,37.78215],[-122.23372,37.78207],[-122.23215,37.78373],[-122.23177,37.7835],[-122.22953,37.7861],[-122.22898,37.78578],[-122.22723,37.78761],[-122.22652,37.78899],[-122.22378,37.79214],[-122.22141,37.79088],[-122.21868,37.7902],[-122.21843,37.7908],[-122.2163,37.7898],[-122.21421,37.79254],[-122.21044,37.7908],[-122.21161,37.79026],[-122.20981,37.78832],[-122.20863,37.78901],[-122.20572,37.78625],[-122.20826,37.78497],[-122.20629,37.78318],[-122.20471,37.782],[-122.20413,37.78254],[-122.19949,37.77839]]]}},{"type":"Feature","properties":{"school":"WEST OAKLAND","level":"middle"},"geometry":{"type":"Polygon","coordinates":[[[-122.29618,37.83099],[-122.29448,37.83056],[-122.29353,37.83069],[-122.29063,37.83012],[-122.29052,37.82979],[-122.28996,37.82989],[-122.28879,37.82956],[-122.28868,37.82924],[-122.2876,37.82947],[-122.28741,37.82922],[-122.28254,37.82808],[-122.28235,37.82758],[-122.28112,37.82743],[-122.28091,37.82771],[-122.28024,37.82754],[-122.28018,37.8277],[-122.28007,37.82768],[-122.28013,37.82752],[-122.27863,37.8272],[-122.27327,37.81053],[-122.27768,37.80346],[-122.27651,37.80299],[-122.28074,37.79618],[-122.28084,37.79576],[-122.28226,37.79472],[-122.28293,37.79474],[-122.28353,37.79358],[-122.28607,37.79364],[-122.28885,37.79329],[-122.29599,37.79194],[-122.30105,37.79196],[-122.30668,37.79276],[-122.32782,37.79734],[-122.34053,37.80167],[-122.3437,37.8064],[-122.3336,37.81239],[-122.32314,37.81132],[-122.31823,37.81721],[-122.32222,37.81995],[-122.3308,37.81892],[-122.33198,37.82081],[-122.33062,37.82318],[-122.32233,37.82432],[-122.31884,37.82594],[-122.31709,37.82943],[-122.31059,37.8292],[-122.3042,37.82739],[-122.30027,37.82835],[-122.29822,37.83095],[-122.29738,37.83108],[-122.29742,37.8313],[-122.29618,37.83099]]]}},{"type":"Feature","properties":{"school":"WESTLAKE","level":"middle"},"geometry":{"type":"Polygon","coordinates":[[[-122.24302,37.83043],[-122.24309,37.83002],[-122.24364,37.83005],[-122.24337,37.82984],[-122.24364,37.82975],[-122.24336,37.82954],[-122.24374,37.82936],[-122.24422,37.82834],[-122.24759,37.82629],[-122.24812,37.82484],[-122.24929,37.82371],[-122.24869,37.82332],[-122.2494,37.82285],[-122.24642,37.82073],[-122.24497,37.81918],[-122.24376,37.81894],[-122.24348,37.81865],[-122.24323,37.81883],[-122.24278,37.81871],[-122.24266,37.8185],[-122.24218,37.81861],[-122.2417,37.81844],[-122.24176,37.81824],[-122.24047,37.81818],[-122.24012,37.81786],[-122.23988,37.81803],[-122.23936,37.8179],[-122.23903,37.8176],[-122.23871,37.81769],[-122.23811,37.81756],[-122.23819,37.81739],[-122.23763,37.81755],[-122.23634,37.81718],[-122.23618,37.81668],[-122.23741,37.81576],[-122.23922,37.81406],[-122.23826,37.81349],[-122.23957,37.81269],[-122.23891,37.81211],[-122.23929,37.81138],[-122.2395,37.81045],[-122.24094,37.80929],[-122.24158,37.80841],[-122.24195,37.80854],[-122.24185,37.8083],[-122.24475,37.80902],[-122.24665,37.80661],[-122.24796,37.80554],[-122.24929,37.80481],[-122.25094,37.80415],[-122.25108,37.80441],[-122.25302,37.80395],[-122.25423,37.80222],[-122.2544,37.80175],[-122.25431,37.80094],[-122.25442,37.80055],[-122.25159,37.79951],[-122.24849,37.79692],[-122.25599,37.79159],[-122.2551,37.7911],[-122.25212,37.79018],[-122.25322,37.78867],[-122.25418,37.7867],[-122.25948,37.78472],[-122.26088,37.78482],[-122.26823,37.78775],[-122.27389,37.79109],[-122.27824,37.79313],[-122.27969,37.79342],[-122.28353,37.79358],[-122.28293,37.79474],[-122.28226,37.79472],[-122.28084,37.79576],[-122.28074,37.79618],[-122.27651,37.80299],[-122.27768,37.80346],[-122.27327,37.81053],[-122.27863,37.8272],[-122.27795,37.82707],[-122.27788,37.82733],[-122.27848,37.82887],[-122.27736,37.83184],[-122.27799,37.83195],[-122.27785,37.83231],[-122.27722,37.83222],[-122.27695,37.83292],[-122.264,37.83087],[-122.25439,37.83125],[-122.25236,37.83444],[-122.25043,37.83354],[-122.24947,37.83209],[-122.24891,37.83154],[-122.2467,37.83324],[-122.24302,37.83043]]]}}]}