{"type":"FeatureCollection","features":[{"type":"Feature","properties":{"school":"LOCKWOOD STEAM","level":"elementary"},"geometry":{"type":"Polygon","coordinates":[[[-122.1877,37.7624],[-122.18843,37.76194],[-122.18795,37.76147],[-122.18962,37.7604],[-122.18408,37.75776],[-122.196,37.74994],[-122.196,37.74898],[-122.19625,37.74896],[-122.19596,37.74716],[-122.19598,37.74471],[-122.19627,37.74056],[-122.19675,37.73714],[-122.19704,37.73616],[-122.19911,37.73165],[-122.20139,37.7275],[-122.20165,37.72653],[-122.20176,37.72658],[-122.20146,37.7254],[-122.2022,37.72578],[-122.20185,37.72552],[-122.20128,37.72459],[-122.20102,37.72368],[-122.20092,37.72251],[-122.20065,37.72238],[-122.20078,37.72166],[-122.20141,37.72034],[-122.20275,37.71858],[-122.20368,37.71793],[-122.20871,37.71601],[-122.2097,37.71539],[-122.2115,37.71543],[-122.21239,37.71505],[-122.2133,37.71431],[-122.21372,37.71368],[-122.21372,37.71337],[-122.21313,37.71233],[-122.21147,37.71158],[-122.21098,37.71153],[-122.20928,37.71017],[-122.21075,37.70927],[-122.21049,37.70134],[-122.21339,37.69874],[-122.24219,37.71943],[-122.2453,37.71986],[-122.25204,37.72482],[-122.24793,37.72837],[-122.24505,37.7258],[-122.23619,37.71986],[-122.22836,37.72773],[-122.22717,37.72738],[-122.22715,37.72755],[-122.22678,37.72766],[-122.22682,37.7331],[-122.22645,37.73447],[-122.22652,37.74793],[-122.22339,37.74804],[-122.22303,37.75003],[-122.22347,37.75666],[-122.22339,37.75624],[-122.21456,37.76147],[-122.2142,37.76106],[-122.21206,37.76106],[-122.21063,37.75979],[-122.20683,37.76009],[-122.19955,37.76512],[-122.19292,37.76197],[-122.19023,37.76371],[-122.18952,37.76443],[-122.18737,37.76581],[-122.18542,37.76382],[-122.1877,37.7624]]]}},{"type":"Feature","properties":{"school":"ALLENDALE","level":"elementary"},"geometry":{"type":"Polygon","coordinates":[[[-122.20203,37.79297],[-122.20154,37.79324],[-122.19649,37.78764],[-122.19612,37.78754],[-122.19549,37.78702],[-122.19623,37.78663],[-122.19467,37.78579],[-122.19456,37.78553],[-122.19365,37.78522],[-122.19401,37.78476],[-122.19407,37.78436],[-122.19393,37.78333],[-122.1935,37.78297],[-122.19352,37.7826],[-122.19814,37.77936],[-122.20257,37.78334],[-122.20424,37.78248],[-122.20471,37.782],[-122.20631,37.78323],[-122.20986,37.78641],[-122.21067,37.78585],[-122.21198,37.78705],[-122.21264,37.78668],[-122.2139,37.78805],[-122.21407,37.78795],[-122.2148,37.7883],[-122.21427,37.78903],[-122.21317,37.78931],[-122.21163,37.79025],[-122.21014,37.7907],[-122.20982,37.79112],[-122.20589,37.79234],[-122.20489,37.79249],[-122.20455,37.79321],[-122.20512,37.79407],[-122.20293,37.79243],[-122.20203,37.79297]]]}},{"type":"Feature","properties":{"school":"GLOBAL FAMILY","level":"elementary"},"geometry":{"type":"Polygon","coordinates":[[[-122.20471,37.782],[-122.21116,37.77519],[-122.21486,37.77235],[-122.21719,37.77347],[-122.21879,37.77141],[-122.21858,37.77131],[-122.22009,37.77021],[-122.21879,37.76939],[-122.22493,37.76459],[-122.2253,37.76542],[-122.2266,37.76694],[-122.22866,37.76831],[-122.23025,37.76899],[-122.22916,37.77036],[-122.22652,37.77634],[-122.22587,37.77617],[-122.22443,37.77613],[-122.22314,37.77555],[-122.22271,37.77611],[-122.22263,37.77657],[-122.21915,37.78226],[-122.22031,37.78292],[-122.21855,37.78522],[-122.21946,37.78567],[-122.21892,37.78637],[-122.2181,37.78593],[-122.21717,37.78714],[-122.21669,37.78687],[-122.21677,37.7868],[-122.21636,37.78671],[-122.21576,37.78791],[-122.21529,37.78793],[-122.2148,37.7883],[-122.21407,37.78795],[-122.2139,37.78805],[-122.21264,37.78668],[-122.21198,37.78705],[-122.21067,37.78585],[-122.20986,37.78641],[-122.20631,37.78323],[-122.20471,37.782]]]}},{"type":"Feature","properties":{"school":"HORACE MANN","level":"elementary"},"geometry":{"type":"Polygon","coordinates":[[[-122.19745,37.77984],[-122.19597,37.77896],[-122.19585,37.77902],[-122.1958,37.77831],[-122.19494,37.77779],[-122.19157,37.77479],[-122.19176,37.77459],[-122.19171,37.77435],[-122.18933,37.77229],[-122.1904,37.77155],[-122.19591,37.77261],[-122.19832,37.77091],[-122.20331,37.77089],[-122.20515,37.77179],[-122.20769,37.77179],[-122.20822,37.77201],[-122.2084,37.77177],[-122.21023,37.77186],[-122.21351,37.77337],[-122.21116,37.77519],[-122.20424,37.78248],[-122.20257,37.78334],[-122.19814,37.77936],[-122.19745,37.77984]]]}},{"type":"Feature","properties":{"school":"BRIDGES","level":"elementary"},"geometry":{"type":"Polygon","coordinates":[[[-122.21351,37.77337],[-122.21002,37.77181],[-122.2084,37.77177],[-122.20822,37.77201],[-122.20769,37.77179],[-122.20515,37.77179],[-122.20331,37.77089],[-122.19859,37.77091],[-122.19859,37.77072],[-122.20372,37.76708],[-122.19955,37.76512],[-122.20683,37.76009],[-122.21063,37.75979],[-122.21206,37.76106],[-122.2142,37.76106],[-122.21456,37.76147],[-122.22339,37.75624],[-122.22376,37.75823],[-122.22423,37.76282],[-122.22493,37.76459],[-122.21879,37.76939],[-122.22009,37.77021],[-122.21858,37.77131],[-122.21879,37.77141],[-122.21719,37.77347],[-122.21486,37.77235],[-122.21351,37.77337]]]}},{"type":"Feature","properties":{"school":"BROOKFIELD","level":"elementary"},"geometry":{"type":"Polygon","coordinates":[[[-122.1832,37.73887],[-122.18175,37.73761],[-122.18127,37.73798],[-122.18061,37.73747],[-122.18019,37.73679],[-122.17968,37.73634],[-122.17978,37.73626],[-122.17934,37.73543],[-122.17921,37.73453],[-122.17934,37.73417],[-122.17953,37.73434],[-122.18212,37.73],[-122.18472,37.72625],[-122.18525,37.72665],[-122.18574,37.72681],[-122.18647,37.72759],[-122.1869,37.72783],[-122.18827,37.72843],[-122.19039,37.72889],[-122.19099,37.72808],[-122.19128,37.72821],[-122.19194,37.72729],[-122.19284,37.7277],[-122.19616,37.72601],[-122.19681,37.72675],[-122.19807,37.72623],[-122.19776,37.72518],[-122.19741,37.72527],[-122.19629,37.72332],[-122.19398,37.72202],[-122.18933,37.71795],[-122.19295,37.7168],[-122.19341,37.71783],[-122.19473,37.71754],[-122.19428,37.71592],[-122.19443,37.71584],[-122.19704,37.71583],[-122.20218,37.71299],[-122.20974,37.71109],[-122.20929,37.7102],[-122.21098,37.71153],[-122.21147,37.71158],[-122.2133,37.71247],[-122.21372,37.71368],[-122.2133,37.71431],[-122.21239,37.71505],[-122.2115,37.71543],[-122.2097,37.71539],[-122.20871,37.71601],[-122.20368,37.71793],[-122.20275,37.71858],[-122.20194,37.71956],[-122.20105,37.72102],[-122.20065,37.72238],[-122.20092,37.72251],[-122.20102,37.72368],[-122.20128,37.72459],[-122.20185,37.72552],[-122.2022,37.72578],[-122.20146,37.7254],[-122.20176,37.72658],[-122.20165,37.72653],[-122.20139,37.7275],[-122.19911,37.73165],[-122.19704,37.73616],[-122.19675,37.73714],[-122.19627,37.74056],[-122.19598,37.74471],[-122.19596,37.74716],[-122.19625,37.74896],[-122.196,37.74898],[-122.196,37.74994],[-122.1832,37.73887]]]}},{"type":"Feature","properties":{"school":"ACORN/ENCOMPASS/HIGHLAND","level":"elementary"},"geometry":{"type":"Polygon","coordinates":[[[-122.17438,37.7496],[-122.17209,37.74648],[-122.17548,37.74489],[-122.17598,37.74555],[-122.18101,37.74327],[-122.18193,37.74465],[-122.18471,37.74334],[-122.1844,37.74308],[-122.18625,37.74154],[-122.196,37.74994],[-122.18408,37.75776],[-122.17839,37.75499],[-122.17438,37.7496]]]}},{"type":"Feature","properties":{"school":"ESPERANZA/KOREMATSU","level":"elementary"},"geometry":{"type":"Polygon","coordinates":[[[-122.16566,37.73781],[-122.17157,37.735],[-122.16976,37.73223],[-122.17051,37.73187],[-122.17387,37.73124],[-122.17482,37.7316],[-122.17437,37.7317],[-122.17726,37.73408],[-122.18019,37.73679],[-122.18061,37.73747],[-122.18127,37.73798],[-122.18175,37.73761],[-122.18625,37.74154],[-122.1844,37.74308],[-122.18471,37.74334],[-122.18193,37.74465],[-122.18101,37.74327],[-122.17598,37.74555],[-122.17548,37.74489],[-122.17209,37.74648],[-122.16566,37.73781]]]}},{"type":"Feature","properties":{"school":"MADISON PRIMARY","level":"elementary"},"geometry":{"type":"Polygon","coordinates":[[[-122.17387,37.73124],[-122.17424,37.73115],[-122.17033,37.72774],[-122.17066,37.72783],[-122.17063,37.7277],[-122.17131,37.72801],[-122.17201,37.72765],[-122.17272,37.72682],[-122.17435,37.72666],[-122.17546,37.72531],[-122.1779,37.72539],[-122.17915,37.72519],[-122.18,37.72572],[-122.18031,37.72575],[-122.18118,37.72546],[-122.1824,37.72537],[-122.18384,37.72568],[-122.18472,37.72625],[-122.18212,37.73],[-122.17953,37.73434],[-122.17934,37.73417],[-122.17927,37.7343],[-122.17922,37.73492],[-122.17978,37.73626],[-122.17968,37.73634],[-122.17726,37.73408],[-122.17437,37.7317],[-122.17482,37.7316],[-122.17387,37.73124]]]}},{"type":"Feature","properties":{"school":"GREENLEAF","level":"elementary"},"geometry":{"type":"Polygon","coordinates":[[[-122.19039,37.77156],[-122.18452,37.77078],[-122.18524,37.77029],[-122.18567,37.76961],[-122.18904,37.76745],[-122.18737,37.76581],[-122.18952,37.76443],[-122.19023,37.76371],[-122.19292,37.76197],[-122.20372,37.76708],[-122.19859,37.77072],[-122.19859,37.77091],[-122.19832,37.77091],[-122.19591,37.77261],[-122.19039,37.77156]]]}},{"type":"Feature","properties":{"school":"REDWOOD HEIGHTS","level":"elementary"},"geometry":{"type":"Polygon","coordinates":[[[-122.1912,37.80404],[-122.18991,37.80257],[-122.18759,37.80068],[-122.18582,37.79898],[-122.18319,37.79567],[-122.18201,37.79388],[-122.1816,37.79429],[-122.18118,37.79409],[-122.18098,37.79347],[-122.17967,37.79176],[-122.17989,37.79054],[-122.17904,37.78983],[-122.1771,37.78741],[-122.17712,37.78676],[-122.17822,37.78479],[-122.18075,37.78774],[-122.18114,37.78858],[-122.18119,37.78949],[-122.18167,37.7893],[-122.18166,37.78896],[-122.182,37.78873],[-122.18203,37.78886],[-122.18243,37.78892],[-122.18262,37.78932],[-122.18294,37.7892],[-122.18311,37.78937],[-122.18512,37.78966],[-122.18555,37.79026],[-122.18606,37.78981],[-122.18819,37.79072],[-122.18948,37.79188],[-122.19008,37.79251],[-122.18826,37.79383],[-122.18956,37.795],[-122.19057,37.79624],[-122.19292,37.79794],[-122.19308,37.79811],[-122.1927,37.79843],[-122.19316,37.7989],[-122.19362,37.79842],[-122.19404,37.79858],[-122.19443,37.79837],[-122.19465,37.7988],[-122.1953,37.79935],[-122.19455,37.79994],[-122.19519,37.80065],[-122.19539,37.80077],[-122.19583,37.79986],[-122.19632,37.79956],[-122.1962,37.79876],[-122.19677,37.79817],[-122.19748,37.79928],[-122.19825,37.79957],[-122.1984,37.80004],[-122.19789,37.80087],[-122.19855,37.80123],[-122.19969,37.80255],[-122.1968,37.80448],[-122.19614,37.80552],[-122.19589,37.80565],[-122.19598,37.80721],[-122.19573,37.80785],[-122.19535,37.80819],[-122.19495,37.80816],[-122.19422,37.80752],[-122.1912,37.80404]]]}},{"type":"Feature","properties":{"school":"REACH","level":"elementary"},"geometry":{"type":"Polygon","coordinates":[[[-122.16384,37.73609],[-122.16422,37.73591],[-122.17438,37.7496],[-122.16137,37.75561],[-122.15977,37.75128],[-122.15632,37.74603],[-122.15397,37.74439],[-122.15224,37.74274],[-122.15141,37.74217],[-122.1487,37.74086],[-122.16083,37.73748],[-122.16384,37.73609]]]}},{"type":"Feature","properties":{"school":"BURCKHALTER","level":"elementary"},"geometry":{"type":"Polygon","coordinates":[[[-122.15134,37.77227],[-122.1538,37.77304],[-122.15417,37.77242],[-122.15508,37.77246],[-122.15609,37.77218],[-122.1589,37.76968],[-122.16037,37.77043],[-122.16224,37.76992],[-122.16238,37.76977],[-122.16225,37.76923],[-122.16357,37.76934],[-122.16539,37.76882],[-122.16591,37.76938],[-122.16678,37.76993],[-122.16687,37.77045],[-122.16804,37.77095],[-122.16898,37.77252],[-122.16998,37.77074],[-122.17202,37.76912],[-122.17679,37.7714],[-122.17781,37.77247],[-122.18033,37.7744],[-122.18137,37.775],[-122.18391,37.77326],[-122.1867,37.77107],[-122.18601,37.77097],[-122.19039,37.77156],[-122.18731,37.77375],[-122.18537,37.77542],[-122.18807,37.77773],[-122.188,37.77806],[-122.18714,37.77868],[-122.18697,37.7799],[-122.18843,37.7842],[-122.17944,37.78357],[-122.17854,37.78327],[-122.17572,37.78164],[-122.17574,37.78297],[-122.17532,37.78349],[-122.17481,37.78382],[-122.17612,37.78405],[-122.17648,37.78435],[-122.17654,37.78469],[-122.1763,37.78509],[-122.17551,37.78567],[-122.1755,37.78587],[-122.1744,37.78706],[-122.17053,37.78547],[-122.16635,37.78065],[-122.15433,37.77609],[-122.15134,37.77227]]]}},{"type":"Feature","properties":{"school":"CARL B MUNCK","level":"elementary"},"geometry":{"type":"Polygon","coordinates":[[[-122.17457,37.80963],[-122.17588,37.8075],[-122.17778,37.80667],[-122.17918,37.80497],[-122.17821,37.80392],[-122.17697,37.80472],[-122.17533,37.80353],[-122.17597,37.8027],[-122.1684,37.79913],[-122.16841,37.80008],[-122.16854,37.80008],[-122.16862,37.80042],[-122.16842,37.80095],[-122.16856,37.80109],[-122.16906,37.801],[-122.16957,37.80154],[-122.17003,37.80169],[-122.17053,37.80269],[-122.17054,37.80466],[-122.16994,37.80478],[-122.16955,37.80508],[-122.16766,37.80579],[-122.16525,37.80527],[-122.16483,37.80503],[-122.16482,37.80448],[-122.16416,37.80293],[-122.16165,37.80145],[-122.16175,37.80116],[-122.16231,37.80091],[-122.16234,37.80003],[-122.15971,37.80006],[-122.15843,37.79803],[-122.15948,37.79741],[-122.15878,37.79705],[-122.15808,37.79736],[-122.15669,37.79668],[-122.15668,37.79648],[-122.15226,37.79648],[-122.1523,37.79309],[-122.14333,37.79302],[-122.14326,37.79035],[-122.14263,37.79031],[-122.14181,37.78976],[-122.14372,37.7874],[-122.14319,37.78703],[-122.13456,37.77814],[-122.13402,37.77849],[-122.13319,37.77768],[-122.13376,37.77732],[-122.13182,37.77534],[-122.13005,37.77219],[-122.13309,37.77096],[-122.13423,37.77082],[-122.13682,37.76964],[-122.13797,37.7695],[-122.13871,37.76971],[-122.1398,37.7703],[-122.14194,37.77231],[-122.14361,37.77301],[-122.14464,37.77311],[-122.1448,37.77402],[-122.14508,37.77446],[-122.14585,37.77492],[-122.14657,37.775],[-122.14721,37.77441],[-122.14757,37.77451],[-122.15062,37.77227],[-122.15107,37.77258],[-122.15134,37.77227],[-122.15433,37.77609],[-122.16635,37.78065],[-122.17053,37.78547],[-122.1744,37.78706],[-122.1755,37.78587],[-122.17551,37.78567],[-122.1763,37.78509],[-122.17654,37.78469],[-122.17648,37.78435],[-122.17612,37.78405],[-122.17481,37.78382],[-122.1756,37.78319],[-122.1757,37.78264],[-122.17728,37.78377],[-122.17822,37.78479],[-122.17712,37.78676],[-122.1771,37.78741],[-122.17904,37.78983],[-122.17989,37.79054],[-122.17967,37.79176],[-122.18098,37.79347],[-122.18118,37.79409],[-122.1816,37.79429],[-122.18201,37.79388],[-122.18319,37.79567],[-122.18582,37.79898],[-122.18759,37.80068],[-122.18991,37.80257],[-122.1912,37.80404],[-122.18804,37.80637],[-122.18778,37.80641],[-122.18707,37.80709],[-122.18637,37.80718],[-122.18627,37.8077],[-122.18566,37.80786],[-122.18493,37.80777],[-122.1846,37.80844],[-122.18475,37.80854],[-122.18439,37.80898],[-122.18456,37.80918],[-122.18433,37.80928],[-122.18474,37.80933],[-122.18475,37.80956],[-122.18511,37.80966],[-122.18495,37.81066],[-122.17457,37.80963]]]}},{"type":"Feature","properties":{"school":"OAKLAND ACADEMY OF KNOWLEDGE","level":"elementary"},"geometry":{"type":"Polygon","coordinates":[[[-122.13309,37.77096],[-122.13338,37.77032],[-122.13331,37.76995],[-122.13199,37.769],[-122.1316,37.76807],[-122.131,37.76749],[-122.13117,37.76675],[-122.13109,37.76646],[-122.12993,37.76609],[-122.13007,37.76551],[-122.12998,37.76504],[-122.13035,37.76506],[-122.13034,37.76416],[-122.1298,37.76272],[-122.12944,37.76211],[-122.1291,37.76206],[-122.129,37.76168],[-122.12922,37.76056],[-122.12943,37.7602],[-122.13072,37.76015],[-122.13096,37.76077],[-122.13145,37.76105],[-122.13176,37.76175],[-122.13261,37.76165],[-122.13399,37.76177],[-122.13575,37.76155],[-122.13625,37.76084],[-122.13628,37.76052],[-122.13665,37.76048],[-122.13717,37.76065],[-122.13817,37.76148],[-122.13893,37.76189],[-122.14128,37.76199],[-122.14129,37.76154],[-122.14208,37.76006],[-122.14203,37.75933],[-122.1425,37.75893],[-122.1418,37.75797],[-122.14182,37.75746],[-122.14386,37.7569],[-122.14528,37.75616],[-122.14573,37.75561],[-122.14644,37.75519],[-122.14896,37.75405],[-122.14951,37.75356],[-122.15036,37.75335],[-122.15067,37.75341],[-122.15206,37.75413],[-122.15314,37.75321],[-122.15347,37.75229],[-122.15398,37.75168],[-122.15882,37.74983],[-122.15977,37.75128],[-122.16137,37.75561],[-122.16432,37.75425],[-122.16587,37.75635],[-122.16549,37.75653],[-122.16594,37.75712],[-122.16538,37.75737],[-122.16659,37.76079],[-122.16803,37.76123],[-122.16618,37.76211],[-122.16883,37.76551],[-122.16648,37.76674],[-122.16618,37.76717],[-122.16629,37.76821],[-122.16585,37.76807],[-122.16539,37.76882],[-122.16357,37.76934],[-122.16225,37.76923],[-122.16238,37.76977],[-122.16224,37.76992],[-122.16037,37.77043],[-122.1589,37.76968],[-122.15609,37.77218],[-122.15508,37.77246],[-122.15417,37.77242],[-122.1538,37.77304],[-122.15134,37.77227],[-122.15107,37.77258],[-122.15062,37.77227],[-122.14757,37.77451],[-122.14721,37.77441],[-122.14673,37.77481],[-122.1467,37.77499],[-122.1462,37.77499],[-122.14563,37.77484],[-122.14508,37.77446],[-122.1448,37.77402],[-122.14464,37.77311],[-122.14361,37.77301],[-122.14194,37.77231],[-122.13994,37.77039],[-122.13835,37.76957],[-122.13709,37.76955],[-122.13562,37.77008],[-122.13394,37.77092],[-122.13309,37.77096]]]}},{"type":"Feature","properties":{"school":"GRASS VALLEY","level":"elementary"},"geometry":{"type":"Polygon","coordinates":[[[-122.1487,37.74086],[-122.15141,37.74217],[-122.15224,37.74274],[-122.15397,37.74439],[-122.15632,37.74603],[-122.15882,37.74983],[-122.15398,37.75168],[-122.15353,37.75215],[-122.15314,37.75321],[-122.15206,37.75413],[-122.15067,37.75341],[-122.15036,37.75335],[-122.14951,37.75356],[-122.14896,37.75405],[-122.14644,37.75519],[-122.14573,37.75561],[-122.14528,37.75616],[-122.14386,37.7569],[-122.14182,37.75746],[-122.1418,37.75797],[-122.1425,37.75893],[-122.14203,37.75933],[-122.14208,37.76006],[-122.14129,37.76154],[-122.14128,37.76199],[-122.13893,37.76189],[-122.13817,37.76148],[-122.13717,37.76065],[-122.13665,37.76048],[-122.13628,37.76052],[-122.13625,37.76084],[-122.13575,37.76155],[-122.13399,37.76177],[-122.13261,37.76165],[-122.13176,37.76175],[-122.13145,37.76105],[-122.13096,37.76077],[-122.13072,37.76015],[-122.12943,37.7602],[-122.12922,37.76056],[-122.129,37.76168],[-122.1291,37.76206],[-122.12944,37.76211],[-122.1298,37.76272],[-122.13034,37.76416],[-122.13035,37.76506],[-122.12998,37.76504],[-122.13007,37.76551],[-122.12993,37.76609],[-122.13109,37.76646],[-122.13117,37.76675],[-122.131,37.76749],[-122.1316,37.76807],[-122.13199,37.769],[-122.13331,37.76995],[-122.13338,37.77032],[-122.13309,37.77096],[-122.13005,37.77219],[-122.12875,37.7697],[-122.12526,37.76376],[-122.12505,37.76268],[-122.12443,37.76194],[-122.12412,37.76112],[-122.12326,37.76027],[-122.12284,37.7591],[-122.11952,37.75519],[-122.1162,37.75038],[-122.11582,37.74872],[-122.1155,37.74889],[-122.1148,37.74181],[-122.11481,37.74017],[-122.11525,37.73916],[-122.11521,37.73716],[-122.11481,37.73612],[-122.1151,37.73528],[-122.1162,37.73413],[-122.11883,37.73228],[-122.12122,37.73182],[-122.12225,37.73],[-122.12218,37.72939],[-122.12448,37.72859],[-122.12547,37.72976],[-122.12985,37.73001],[-122.13066,37.73013],[-122.13124,37.73043],[-122.13236,37.73173],[-122.13113,37.73227],[-122.1305,37.73278],[-122.13041,37.73343],[-122.13064,37.7337],[-122.13201,37.73367],[-122.13283,37.73399],[-122.13486,37.73431],[-122.13671,37.73186],[-122.13811,37.73101],[-122.13899,37.73093],[-122.14031,37.73625],[-122.14064,37.73702],[-122.14135,37.73798],[-122.14381,37.74004],[-122.14605,37.74276],[-122.14651,37.74247],[-122.14754,37.74121],[-122.1487,37.74086]]]}},{"type":"Feature","properties":{"school":"BELLA VISTA","level":"elementary"},"geometry":{"type":"Polygon","coordinates":[[[-122.23075,37.80142],[-122.23138,37.79929],[-122.2334,37.79965],[-122.23308,37.79889],[-122.2332,37.79663],[-122.23908,37.79449],[-122.24094,37.79319],[-122.24658,37.79818],[-122.24849,37.79691],[-122.25099,37.79913],[-122.24972,37.8],[-122.24806,37.80052],[-122.24707,37.80113],[-122.24612,37.80149],[-122.24371,37.80187],[-122.24201,37.80233],[-122.2348,37.80336],[-122.23353,37.80421],[-122.23064,37.80193],[-122.23075,37.80142]]]}},{"type":"Feature","properties":{"school":"CHABOT","level":"elementary"},"geometry":{"type":"Polygon","coordinates":[[[-122.23323,37.85186],[-122.23235,37.85071],[-122.23158,37.85027],[-122.23053,37.84912],[-122.23069,37.8487],[-122.23414,37.84817],[-122.23513,37.8482],[-122.23512,37.84751],[-122.2353,37.84701],[-122.23631,37.84671],[-122.23692,37.84693],[-122.23713,37.84672],[-122.23707,37.84624],[-122.23653,37.84572],[-122.23698,37.84573],[-122.23736,37.84532],[-122.23758,37.84445],[-122.23736,37.84372],[-122.23752,37.84341],[-122.23858,37.8436],[-122.23912,37.84401],[-122.23955,37.84409],[-122.24213,37.84368],[-122.24343,37.84313],[-122.2436,37.84283],[-122.24358,37.8424],[-122.24287,37.84096],[-122.24293,37.84016],[-122.24246,37.83965],[-122.24195,37.83842],[-122.24811,37.83559],[-122.24865,37.83583],[-122.24855,37.83601],[-122.25086,37.83692],[-122.25128,37.83625],[-122.25129,37.83713],[-122.25906,37.84104],[-122.2523,37.84942],[-122.25245,37.85083],[-122.2511,37.85123],[-122.2509,37.85112],[-122.25069,37.85139],[-122.25005,37.85142],[-122.24999,37.8513],[-122.24739,37.85165],[-122.24612,37.85161],[-122.24505,37.85172],[-122.24494,37.8519],[-122.24479,37.85174],[-122.23419,37.85238],[-122.2342,37.85255],[-122.23365,37.85232],[-122.23323,37.85186]]]}},{"type":"Feature","properties":{"school":"CHABOT/THORNHILL","level":"elementary"},"geometry":{"type":"Polygon","coordinates":[[[-122.24409,37.88323],[-122.24257,37.88213],[-122.23925,37.88348],[-122.23255,37.88174],[-122.22885,37.88103],[-122.22363,37.87857],[-122.21982,37.8735],[-122.21765,37.87225],[-122.21639,37.86908],[-122.2198,37.86734],[-122.22143,37.86547],[-122.21984,37.86478],[-122.2134,37.85831],[-122.21294,37.85779],[-122.21283,37.85744],[-122.21194,37.85694],[-122.21409,37.85577],[-122.21419,37.85611],[-122.21731,37.85438],[-122.21975,37.85377],[-122.22163,37.85251],[-122.22273,37.85],[-122.22382,37.84889],[-122.22529,37.84824],[-122.22699,37.84808],[-122.22802,37.84825],[-122.22872,37.8489],[-122.23053,37.84912],[-122.23158,37.85027],[-122.23267,37.85104],[-122.23351,37.8522],[-122.2342,37.85255],[-122.23477,37.85779],[-122.23673,37.85757],[-122.23811,37.85756],[-122.23818,37.8577],[-122.23892,37.85755],[-122.23912,37.85773],[-122.23944,37.85751],[-122.23974,37.85757],[-122.24038,37.8573],[-122.24055,37.85755],[-122.24123,37.85741],[-122.24117,37.85727],[-122.24166,37.85706],[-122.24178,37.85725],[-122.2415,37.85738],[-122.24185,37.85735],[-122.24273,37.85794],[-122.24253,37.85794],[-122.24262,37.85872],[-122.24392,37.85864],[-122.24398,37.85897],[-122.24459,37.85901],[-122.2443,37.86033],[-122.24404,37.86071],[-122.24427,37.86097],[-122.24429,37.86143],[-122.24415,37.8615],[-122.24449,37.86188],[-122.24436,37.86208],[-122.24442,37.86272],[-122.24496,37.86306],[-122.24554,37.86404],[-122.24489,37.86471],[-122.24464,37.86473],[-122.24475,37.86579],[-122.2452,37.8658],[-122.24555,37.86624],[-122.24483,37.86628],[-122.24472,37.86667],[-122.24508,37.86687],[-122.24462,37.8674],[-122.24494,37.86769],[-122.24692,37.88536],[-122.24409,37.88323]]]}},{"type":"Feature","properties":{"school":"CLEVELAND","level":"elementary"},"geometry":{"type":"Polygon","coordinates":[[[-122.24433,37.81906],[-122.24376,37.81894],[-122.24348,37.81865],[-122.24323,37.81883],[-122.24278,37.81871],[-122.24266,37.8185],[-122.24218,37.81861],[-122.2417,37.81844],[-122.24176,37.81824],[-122.2413,37.81815],[-122.24108,37.8183],[-122.24062,37.8181],[-122.24048,37.81819],[-122.24012,37.81786],[-122.23988,37.81803],[-122.2393,37.81783],[-122.2408,37.81678],[-122.24139,37.81592],[-122.24119,37.81572],[-122.24151,37.81549],[-122.24056,37.81463],[-122.23995,37.81358],[-122.24087,37.81292],[-122.24248,37.81136],[-122.24646,37.80983],[-122.24207,37.80858],[-122.23536,37.80577],[-122.23353,37.80421],[-122.2348,37.80336],[-122.24201,37.80233],[-122.24371,37.80187],[-122.24612,37.80149],[-122.24707,37.80113],[-122.24806,37.80052],[-122.24972,37.8],[-122.25099,37.79913],[-122.252,37.79972],[-122.25695,37.80142],[-122.2527,37.80618],[-122.25099,37.80552],[-122.2517,37.80503],[-122.25113,37.80446],[-122.25086,37.8047],[-122.2494,37.808],[-122.24952,37.80831],[-122.25033,37.80889],[-122.24884,37.81018],[-122.2487,37.81012],[-122.24847,37.81044],[-122.24861,37.81051],[-122.24621,37.81456],[-122.24474,37.81912],[-122.24433,37.81906]]]}},{"type":"Feature","properties":{"school":"CROCKER","level":"elementary"},"geometry":{"type":"Polygon","coordinates":[[[-122.23907,37.81763],[-122.23812,37.81755],[-122.23819,37.81739],[-122.23763,37.81755],[-122.23573,37.81714],[-122.23571,37.81696],[-122.23524,37.81702],[-122.23511,37.81684],[-122.23395,37.81665],[-122.23393,37.81652],[-122.23338,37.81653],[-122.2199,37.81334],[-122.22108,37.81247],[-122.22115,37.8115],[-122.22264,37.81018],[-122.22393,37.8099],[-122.22451,37.80955],[-122.22466,37.8097],[-122.22507,37.80941],[-122.22354,37.8079],[-122.22465,37.80734],[-122.22546,37.80722],[-122.22633,37.8068],[-122.22753,37.80588],[-122.22868,37.80553],[-122.22879,37.80528],[-122.22854,37.80459],[-122.22955,37.80446],[-122.23324,37.80528],[-122.23429,37.80534],[-122.24109,37.80822],[-122.24646,37.80983],[-122.24248,37.81136],[-122.24087,37.81292],[-122.23995,37.81358],[-122.24056,37.81463],[-122.24151,37.81549],[-122.24119,37.81572],[-122.24139,37.81592],[-122.24066,37.8169],[-122.2393,37.81783],[-122.23907,37.81763]]]}},{"type":"Feature","properties":{"school":"EMERSON","level":"elementary"},"geometry":{"type":"Polygon","coordinates":[[[-122.25756,37.84288],[-122.25906,37.84104],[-122.25129,37.83713],[-122.25128,37.83625],[-122.26004,37.82219],[-122.26192,37.82276],[-122.26599,37.82351],[-122.26595,37.82366],[-122.26919,37.8245],[-122.27836,37.82659],[-122.27788,37.82732],[-122.27848,37.82887],[-122.27736,37.83184],[-122.27799,37.83195],[-122.27785,37.83231],[-122.27722,37.83222],[-122.27567,37.8363],[-122.26419,37.83784],[-122.26444,37.83972],[-122.26396,37.84019],[-122.26255,37.84106],[-122.25782,37.84289],[-122.25756,37.84288]]]}},{"type":"Feature","properties":{"school":"FRANKLIN","level":"elementary"},"geometry":{"type":"Polygon","coordinates":[[[-122.24094,37.79319],[-122.24605,37.78954],[-122.24886,37.78591],[-122.25135,37.78689],[-122.25269,37.78699],[-122.25397,37.78678],[-122.26007,37.78449],[-122.26486,37.78642],[-122.26167,37.78917],[-122.2601,37.79014],[-122.25982,37.79098],[-122.25879,37.79223],[-122.252,37.79707],[-122.25117,37.79634],[-122.25026,37.79696],[-122.24935,37.79626],[-122.24658,37.79818],[-122.24094,37.79319]]]}},{"type":"Feature","properties":{"school":"FRUITVALE","level":"elementary"},"geometry":{"type":"Polygon","coordinates":[[[-122.20886,37.79851],[-122.20771,37.79864],[-122.20495,37.79739],[-122.20546,37.79688],[-122.20395,37.79565],[-122.20457,37.79518],[-122.20203,37.79297],[-122.20322,37.7922],[-122.20416,37.79316],[-122.20455,37.79321],[-122.20489,37.79249],[-122.20589,37.79234],[-122.20982,37.79112],[-122.21014,37.7907],[-122.21163,37.79025],[-122.21317,37.78931],[-122.21427,37.78903],[-122.21491,37.78811],[-122.21576,37.78791],[-122.21636,37.78671],[-122.21677,37.7868],[-122.21669,37.78687],[-122.21717,37.78714],[-122.2181,37.78593],[-122.21892,37.78637],[-122.21871,37.78665],[-122.2194,37.78699],[-122.21988,37.78627],[-122.22153,37.78685],[-122.22007,37.79054],[-122.21868,37.7902],[-122.21843,37.7908],[-122.21788,37.79055],[-122.21702,37.79166],[-122.21801,37.79214],[-122.22066,37.79273],[-122.22025,37.79336],[-122.22026,37.79425],[-122.21956,37.79572],[-122.21918,37.79838],[-122.21855,37.79904],[-122.21771,37.79952],[-122.21726,37.80063],[-122.20886,37.79851]]]}},{"type":"Feature","properties":{"school":"GARFIELD","level":"elementary"},"geometry":{"type":"Polygon","coordinates":[[[-122.23775,37.79362],[-122.23757,37.79351],[-122.23685,37.79426],[-122.23014,37.79023],[-122.23167,37.78867],[-122.22963,37.78744],[-122.2304,37.78663],[-122.22953,37.7861],[-122.23179,37.78349],[-122.23218,37.78372],[-122.23372,37.7821],[-122.23385,37.78218],[-122.23479,37.78121],[-122.23878,37.78355],[-122.23865,37.78321],[-122.23764,37.78251],[-122.23731,37.78197],[-122.23712,37.78055],[-122.23727,37.7776],[-122.23626,37.77557],[-122.23584,37.77274],[-122.23653,37.77172],[-122.23804,37.77236],[-122.24051,37.77374],[-122.24355,37.77628],[-122.2449,37.77918],[-122.24523,37.78304],[-122.24577,37.78394],[-122.2466,37.78468],[-122.24886,37.78591],[-122.24605,37.78954],[-122.24282,37.79191],[-122.23908,37.79449],[-122.23775,37.79362]]]}},{"type":"Feature","properties":{"school":"GLENVIEW","level":"elementary"},"geometry":{"type":"Polygon","coordinates":[[[-122.21842,37.81301],[-122.21512,37.81227],[-122.21474,37.81269],[-122.21281,37.81188],[-122.21218,37.81146],[-122.21153,37.8107],[-122.21064,37.81058],[-122.20999,37.81025],[-122.20948,37.81026],[-122.20858,37.80964],[-122.2079,37.80991],[-122.20757,37.80978],[-122.20765,37.80926],[-122.21077,37.80693],[-122.21185,37.80575],[-122.2123,37.80548],[-122.21301,37.80471],[-122.21364,37.80359],[-122.21601,37.80394],[-122.21771,37.79952],[-122.21855,37.79904],[-122.21918,37.79838],[-122.21956,37.79572],[-122.21987,37.79485],[-122.22282,37.79533],[-122.22429,37.79509],[-122.22769,37.79579],[-122.23061,37.79754],[-122.2332,37.79663],[-122.23308,37.79889],[-122.2334,37.79965],[-122.23138,37.79929],[-122.23064,37.80193],[-122.23536,37.80577],[-122.23429,37.80534],[-122.23324,37.80528],[-122.22955,37.80446],[-122.22877,37.80447],[-122.22854,37.80459],[-122.22879,37.80528],[-122.22868,37.80553],[-122.22753,37.80588],[-122.22633,37.8068],[-122.22546,37.80722],[-122.22465,37.80734],[-122.22354,37.8079],[-122.22507,37.80941],[-122.22466,37.8097],[-122.22451,37.80955],[-122.22393,37.8099],[-122.22264,37.81018],[-122.22115,37.8115],[-122.22108,37.81247],[-122.2199,37.81334],[-122.21842,37.81301]]]}},{"type":"Feature","properties":{"school":"MARKHAM","level":"elementary"},"geometry":{"type":"Polygon","coordinates":[[[-122.18737,37.76581],[-122.18904,37.76745],[-122.18553,37.76976],[-122.18524,37.77029],[-122.18452,37.77078],[-122.1867,37.77107],[-122.18391,37.77326],[-122.18137,37.775],[-122.18033,37.7744],[-122.17781,37.77247],[-122.17679,37.7714],[-122.17202,37.76912],[-122.16998,37.77073],[-122.16898,37.77252],[-122.16804,37.77095],[-122.16687,37.77045],[-122.16678,37.76993],[-122.16591,37.76938],[-122.16539,37.76882],[-122.16585,37.76807],[-122.16629,37.76821],[-122.16618,37.76717],[-122.16648,37.76674],[-122.17102,37.76441],[-122.1723,37.76359],[-122.17393,37.7652],[-122.17494,37.76456],[-122.17439,37.76403],[-122.17636,37.76286],[-122.17711,37.76359],[-122.18001,37.76178],[-122.18119,37.76086],[-122.18192,37.76159],[-122.18626,37.75875],[-122.18962,37.7604],[-122.18795,37.76147],[-122.18843,37.76194],[-122.18542,37.76382],[-122.18737,37.76581]]]}},{"type":"Feature","properties":{"school":"HILLCREST","level":"elementary"},"geometry":{"type":"Polygon","coordinates":[[[-122.21633,37.83225],[-122.2187,37.8329],[-122.22158,37.8326],[-122.22205,37.83227],[-122.22244,37.83136],[-122.22295,37.83067],[-122.22445,37.83024],[-122.22492,37.83087],[-122.22639,37.83199],[-122.22729,37.83289],[-122.2278,37.83368],[-122.24246,37.83965],[-122.24293,37.84016],[-122.24287,37.84096],[-122.24352,37.84219],[-122.24356,37.84295],[-122.2432,37.84328],[-122.24232,37.84363],[-122.23955,37.84409],[-122.23912,37.84401],[-122.23858,37.8436],[-122.23752,37.84341],[-122.23736,37.84372],[-122.23758,37.84445],[-122.23736,37.84532],[-122.23698,37.84573],[-122.23653,37.84572],[-122.23707,37.84624],[-122.23713,37.84672],[-122.23692,37.84693],[-122.23631,37.84671],[-122.2353,37.84701],[-122.23512,37.84751],[-122.23513,37.8482],[-122.23414,37.84817],[-122.23069,37.8487],[-122.22783,37.84576],[-122.22477,37.84167],[-122.22398,37.84135],[-122.22345,37.84039],[-122.22292,37.83981],[-122.2227,37.83923],[-122.22209,37.83848],[-122.21952,37.83638],[-122.21633,37.83225]]]}},{"type":"Feature","properties":{"school":"HOOVER","level":"elementary"},"geometry":{"type":"Polygon","coordinates":[[[-122.27811,37.82711],[-122.27836,37.82659],[-122.26919,37.8245],[-122.26595,37.82366],[-122.26599,37.82351],[-122.26192,37.82276],[-122.26004,37.82219],[-122.26302,37.81744],[-122.26725,37.81816],[-122.2711,37.81914],[-122.27122,37.81873],[-122.27618,37.81954],[-122.27596,37.81883],[-122.28614,37.82116],[-122.28836,37.81839],[-122.28952,37.81808],[-122.28941,37.81932],[-122.28972,37.81897],[-122.29226,37.82026],[-122.29017,37.82285],[-122.29112,37.82603],[-122.29081,37.82881],[-122.28981,37.82907],[-122.28996,37.82989],[-122.28879,37.82956],[-122.28868,37.82924],[-122.2876,37.82947],[-122.28741,37.82922],[-122.28254,37.82807],[-122.28235,37.82758],[-122.28112,37.82743],[-122.28091,37.82771],[-122.28024,37.82754],[-122.28018,37.8277],[-122.28006,37.82768],[-122.28013,37.82752],[-122.27811,37.82711]]]}},{"type":"Feature","properties":{"school":"INTERNATIONAL COMMUNITY/THINK COLLEGE NOW","level":"elementary"},"geometry":{"type":"Polygon","coordinates":[[[-122.22277,37.78374],[-122.21988,37.78275],[-122.21915,37.78226],[-122.22314,37.77555],[-122.22443,37.77613],[-122.22587,37.77617],[-122.22652,37.77634],[-122.22916,37.77036],[-122.23025,37.76899],[-122.23653,37.77172],[-122.23584,37.77274],[-122.23626,37.77557],[-122.23727,37.7776],[-122.23712,37.78055],[-122.23731,37.78197],[-122.23764,37.78251],[-122.23865,37.78321],[-122.23873,37.78359],[-122.23479,37.78121],[-122.23385,37.78218],[-122.23372,37.7821],[-122.23218,37.78372],[-122.23179,37.78349],[-122.23068,37.7847],[-122.22454,37.78428],[-122.22277,37.78374]]]}},{"type":"Feature","properties":{"school":"JOAQUIN MILLER","level":"elementary"},"geometry":{"type":"Polygon","coordinates":[[[-122.18439,37.83559],[-122.18383,37.83436],[-122.18478,37.83286],[-122.18515,37.83255],[-122.1867,37.82988],[-122.18704,37.82754],[-122.18574,37.82537],[-122.18688,37.82209],[-122.18559,37.82073],[-122.1836,37.82048],[-122.18124,37.81935],[-122.18037,37.81816],[-122.17549,37.81459],[-122.17417,37.81027],[-122.17457,37.80963],[-122.18495,37.81066],[-122.18511,37.80966],[-122.18475,37.80956],[-122.18474,37.80933],[-122.18433,37.80928],[-122.18456,37.80918],[-122.18439,37.80898],[-122.18475,37.80854],[-122.1846,37.80844],[-122.18493,37.80777],[-122.18566,37.80786],[-122.18627,37.8077],[-122.18637,37.80718],[-122.18707,37.80709],[-122.18778,37.80641],[-122.18804,37.80637],[-122.1912,37.80404],[-122.19358,37.80686],[-122.19473,37.808],[-122.19508,37.80822],[-122.19535,37.80819],[-122.19575,37.80883],[-122.19793,37.81038],[-122.19899,37.81016],[-122.19905,37.81046],[-122.1998,37.81148],[-122.20014,37.81149],[-122.20055,37.81124],[-122.20165,37.81137],[-122.2028,37.81077],[-122.20376,37.8111],[-122.2043,37.81156],[-122.20447,37.81196],[-122.20538,37.80954],[-122.20585,37.80922],[-122.20702,37.80972],[-122.20765,37.80926],[-122.20759,37.80987],[-122.2079,37.80991],[-122.20858,37.80964],[-122.20948,37.81026],[-122.20999,37.81025],[-122.21064,37.81058],[-122.21153,37.8107],[-122.21218,37.81146],[-122.21281,37.81188],[-122.21474,37.81269],[-122.21411,37.81316],[-122.21321,37.81451],[-122.21308,37.81523],[-122.21319,37.81579],[-122.21276,37.81613],[-122.21284,37.81641],[-122.21262,37.81648],[-122.21177,37.81752],[-122.20838,37.82003],[-122.20759,37.8213],[-122.20673,37.82207],[-122.20713,37.82245],[-122.2058,37.82432],[-122.20439,37.82405],[-122.20353,37.82365],[-122.20318,37.82374],[-122.20269,37.82417],[-122.20251,37.82474],[-122.20266,37.82591],[-122.20228,37.82716],[-122.20155,37.82855],[-122.201,37.82911],[-122.19678,37.83129],[-122.19418,37.83199],[-122.19338,37.83238],[-122.19254,37.83165],[-122.1908,37.83198],[-122.1893,37.83196],[-122.18912,37.83233],[-122.18802,37.83224],[-122.18799,37.83262],[-122.18814,37.83285],[-122.18935,37.8334],[-122.19049,37.83339],[-122.19072,37.83305],[-122.1908,37.83322],[-122.19066,37.83363],[-122.19002,37.83392],[-122.18986,37.83435],[-122.18891,37.83516],[-122.18845,37.83524],[-122.1873,37.83503],[-122.18707,37.83508],[-122.18713,37.8354],[-122.187,37.83541],[-122.18588,37.83519],[-122.18494,37.83535],[-122.18461,37.8352],[-122.18486,37.83545],[-122.18478,37.83579],[-122.18453,37.83591],[-122.18439,37.83559]]]}},{"type":"Feature","properties":{"school":"LA ESCUELITA","level":"elementary"},"geometry":{"type":"Polygon","coordinates":[[[-122.25099,37.79913],[-122.24849,37.79691],[-122.24935,37.79626],[-122.25026,37.79696],[-122.25117,37.79634],[-122.252,37.79707],[-122.25879,37.79223],[-122.25982,37.79098],[-122.2601,37.79014],[-122.26167,37.78917],[-122.26486,37.78642],[-122.26801,37.78766],[-122.26418,37.79056],[-122.26343,37.7909],[-122.26323,37.79142],[-122.26269,37.7921],[-122.26115,37.79366],[-122.25957,37.79632],[-122.25956,37.79795],[-122.25935,37.79847],[-122.25937,37.79898],[-122.25818,37.80002],[-122.25695,37.80142],[-122.252,37.79972],[-122.25099,37.79913]]]}},{"type":"Feature","properties":{"school":"LAUREL","level":"elementary"},"geometry":{"type":"Polygon","coordinates":[[[-122.19684,37.79825],[-122.19677,37.79817],[-122.1962,37.79876],[-122.19632,37.79956],[-122.19583,37.79986],[-122.19539,37.80077],[-122.19519,37.80065],[-122.19455,37.79994],[-122.1953,37.79935],[-122.19465,37.7988],[-122.19443,37.79837],[-122.19404,37.79858],[-122.19362,37.79842],[-122.19316,37.7989],[-122.1927,37.79843],[-122.19308,37.79811],[-122.19292,37.79794],[-122.19057,37.79624],[-122.18956,37.795],[-122.18826,37.79383],[-122.19008,37.79251],[-122.18948,37.79188],[-122.18819,37.79072],[-122.18606,37.78981],[-122.18555,37.79026],[-122.18512,37.78966],[-122.18311,37.78937],[-122.18294,37.7892],[-122.18262,37.78932],[-122.18243,37.78892],[-122.18203,37.78886],[-122.182,37.78873],[-122.18166,37.78896],[-122.18167,37.7893],[-122.18142,37.78928],[-122.18075,37.78774],[-122.18023,37.78707],[-122.17728,37.78377],[-122.1757,37.78264],[-122.17572,37.78164],[-122.17854,37.78327],[-122.17944,37.78357],[-122.18843,37.7842],[-122.18697,37.7799],[-122.18714,37.77868],[-122.188,37.77806],[-122.18807,37.77773],[-122.18537,37.77542],[-122.18731,37.77375],[-122.18933,37.77229],[-122.19171,37.77435],[-122.19176,37.77459],[-122.19157,37.77479],[-122.19494,37.77779],[-122.1958,37.77831],[-122.19588,37.77894],[-122.19745,37.77984],[-122.19352,37.7826],[-122.1935,37.78297],[-122.19393,37.78333],[-122.19407,37.78436],[-122.19401,37.78476],[-122.19365,37.78522],[-122.19456,37.78553],[-122.19467,37.78579],[-122.19619,37.78662],[-122.19549,37.78702],[-122.19612,37.78754],[-122.19649,37.78764],[-122.20154,37.79324],[-122.20203,37.79297],[-122.20457,37.79518],[-122.20395,37.79565],[-122.20546,37.79688],[-122.19969,37.80255],[-122.19855,37.80123],[-122.19789,37.80087],[-122.1984,37.80004],[-122.19827,37.79962],[-122.19748,37.79928],[-122.19684,37.79825]]]}},{"type":"Feature","properties":{"school":"LINCOLN","level":"elementary"},"geometry":{"type":"Polygon","coordinates":[[[-122.25513,37.81112],[-122.25632,37.80854],[-122.25623,37.80794],[-122.25501,37.80621],[-122.25336,37.80545],[-122.25818,37.80002],[-122.25937,37.79898],[-122.25935,37.79847],[-122.25956,37.79795],[-122.25957,37.79632],[-122.26115,37.79366],[-122.26269,37.7921],[-122.26323,37.79142],[-122.26343,37.7909],[-122.26418,37.79056],[-122.26801,37.78766],[-122.27389,37.79109],[-122.27819,37.79311],[-122.27969,37.79342],[-122.28353,37.79358],[-122.28293,37.79474],[-122.28226,37.79472],[-122.28084,37.79576],[-122.28074,37.79618],[-122.27565,37.80436],[-122.27447,37.8039],[-122.27361,37.80528],[-122.27244,37.80481],[-122.272,37.80549],[-122.27159,37.80533],[-122.27103,37.80543],[-122.27057,37.80533],[-122.26959,37.80957],[-122.26825,37.80905],[-122.26228,37.81861],[-122.26057,37.81834],[-122.25807,37.81683],[-122.25606,37.81533],[-122.2555,37.81464],[-122.25516,37.81378],[-122.25549,37.81282],[-122.25513,37.81112]]]}},{"type":"Feature","properties":{"school":"MANZANITA/SEED","level":"elementary"},"geometry":{"type":"Polygon","coordinates":[[[-122.22612,37.79547],[-122.22429,37.79509],[-122.22282,37.79533],[-122.21987,37.79485],[-122.22026,37.79425],[-122.22025,37.79336],[-122.22066,37.79273],[-122.21801,37.79214],[-122.21702,37.79166],[-122.21788,37.79055],[-122.21843,37.7908],[-122.21868,37.7902],[-122.22007,37.79054],[-122.22147,37.78701],[-122.22153,37.78685],[-122.21988,37.78627],[-122.2194,37.78699],[-122.21871,37.78665],[-122.21946,37.78567],[-122.21855,37.78522],[-122.22031,37.78292],[-122.22454,37.78428],[-122.23083,37.78471],[-122.22953,37.7861],[-122.2304,37.78663],[-122.22963,37.78744],[-122.23167,37.78867],[-122.23014,37.79023],[-122.23685,37.79426],[-122.23757,37.79351],[-122.23908,37.79449],[-122.23061,37.79754],[-122.22769,37.79579],[-122.22612,37.79547]]]}},{"type":"Feature","properties":{"school":"MARTIN LUTHER KING JR","level":"elementary"},"geometry":{"type":"Polygon","coordinates":[[[-122.26302,37.81744],[-122.26825,37.80905],[-122.26959,37.80957],[-122.27057,37.80533],[-122.27103,37.80543],[-122.27159,37.80533],[-122.272,37.80549],[-122.27244,37.80481],[-122.27361,37.80528],[-122.27447,37.8039],[-122.27565,37.80436],[-122.28074,37.79618],[-122.28084,37.79576],[-122.28226,37.79472],[-122.28293,37.79474],[-122.28353,37.79358],[-122.28598,37.79362],[-122.28947,37.79319],[-122.29599,37.79194],[-122.30105,37.79196],[-122.30582,37.79258],[-122.30954,37.79339],[-122.29494,37.80179],[-122.29318,37.80604],[-122.29308,37.80691],[-122.28976,37.81616],[-122.28952,37.81808],[-122.28836,37.81839],[-122.28614,37.82116],[-122.27596,37.81883],[-122.27618,37.81954],[-122.27122,37.81873],[-122.2711,37.81914],[-122.26725,37.81816],[-122.26302,37.81744]]]}},{"type":"Feature","properties":{"school":"MONTCLAIR","level":"elementary"},"geometry":{"type":"Polygon","coordinates":[[[-122.1952,37.84283],[-122.19564,37.84192],[-122.19528,37.84163],[-122.19432,37.84137],[-122.19414,37.84108],[-122.19371,37.84083],[-122.1937,37.84066],[-122.19208,37.84025],[-122.18878,37.83774],[-122.18735,37.83787],[-122.18513,37.83736],[-122.18453,37.83591],[-122.18478,37.83579],[-122.18486,37.83554],[-122.18461,37.8352],[-122.18494,37.83535],[-122.18588,37.83519],[-122.187,37.83541],[-122.18713,37.8354],[-122.18707,37.83508],[-122.1873,37.83503],[-122.1886,37.83523],[-122.18891,37.83516],[-122.18986,37.83435],[-122.19002,37.83392],[-122.19066,37.83363],[-122.19079,37.83311],[-122.19064,37.83303],[-122.19049,37.83339],[-122.18935,37.8334],[-122.18814,37.83285],[-122.18799,37.83262],[-122.18802,37.83224],[-122.18912,37.83233],[-122.1893,37.83196],[-122.1908,37.83198],[-122.19254,37.83165],[-122.19338,37.83238],[-122.19418,37.83199],[-122.19678,37.83129],[-122.20075,37.8293],[-122.20155,37.82855],[-122.20228,37.82716],[-122.20266,37.82591],[-122.20251,37.82474],[-122.20269,37.82417],[-122.20318,37.82374],[-122.20353,37.82365],[-122.20439,37.82405],[-122.2058,37.82432],[-122.20713,37.82245],[-122.20673,37.82207],[-122.20743,37.82148],[-122.20859,37.81982],[-122.21019,37.81862],[-122.2172,37.823],[-122.21906,37.8243],[-122.21909,37.82452],[-122.21966,37.82452],[-122.2201,37.82501],[-122.22072,37.82537],[-122.22174,37.82674],[-122.22163,37.82681],[-122.22224,37.82728],[-122.2221,37.82755],[-122.22238,37.82766],[-122.2222,37.82817],[-122.22263,37.8288],[-122.22385,37.8295],[-122.22445,37.83024],[-122.22295,37.83067],[-122.22244,37.83136],[-122.22205,37.83227],[-122.22158,37.8326],[-122.21815,37.83285],[-122.21633,37.83225],[-122.21568,37.83157],[-122.21542,37.83151],[-122.21452,37.83279],[-122.21241,37.83434],[-122.21202,37.83501],[-122.20936,37.83514],[-122.20786,37.83459],[-122.20739,37.83473],[-122.20574,37.83426],[-122.20534,37.83481],[-122.20453,37.83503],[-122.20422,37.83535],[-122.20369,37.83532],[-122.20327,37.83596],[-122.20371,37.83701],[-122.20319,37.83734],[-122.20311,37.83774],[-122.20333,37.83809],[-122.20467,37.83863],[-122.2043,37.83922],[-122.2021,37.83864],[-122.20109,37.83879],[-122.19979,37.83855],[-122.19932,37.83883],[-122.19995,37.83973],[-122.19947,37.84022],[-122.20021,37.84076],[-122.19985,37.84138],[-122.20054,37.84202],[-122.19918,37.84214],[-122.19896,37.8423],[-122.1993,37.84329],[-122.19863,37.84362],[-122.19787,37.84373],[-122.19688,37.84324],[-122.1952,37.84283]]]}},{"type":"Feature","properties":{"school":"PERALTA","level":"elementary"},"geometry":{"type":"Polygon","coordinates":[[[-122.25245,37.85083],[-122.2523,37.84942],[-122.25756,37.84288],[-122.25782,37.84289],[-122.26255,37.84106],[-122.26396,37.84019],[-122.26444,37.83972],[-122.26509,37.84451],[-122.2617,37.84503],[-122.26269,37.84897],[-122.26894,37.84834],[-122.26893,37.84815],[-122.26942,37.84809],[-122.26952,37.84859],[-122.26839,37.84877],[-122.26898,37.85162],[-122.26396,37.8523],[-122.26394,37.85217],[-122.26362,37.8523],[-122.26358,37.85255],[-122.26226,37.8527],[-122.26223,37.85253],[-122.25977,37.85286],[-122.2598,37.85302],[-122.25838,37.8532],[-122.25835,37.85305],[-122.25815,37.85307],[-122.25401,37.85375],[-122.25398,37.85362],[-122.25346,37.85368],[-122.2535,37.85382],[-122.25336,37.85383],[-122.25293,37.85078],[-122.25245,37.85083]]]}},{"type":"Feature","properties":{"school":"PERALTA/SANKOFA","level":"elementary"},"geometry":{"type":"Polygon","coordinates":[[[-122.26509,37.84451],[-122.26806,37.84414],[-122.26862,37.84678],[-122.26916,37.84674],[-122.26942,37.84809],[-122.26893,37.84815],[-122.26894,37.84834],[-122.26269,37.84897],[-122.2617,37.84503],[-122.26509,37.84451]]]}},{"type":"Feature","properties":{"school":"PIEDMONT","level":"elementary"},"geometry":{"type":"Polygon","coordinates":[[[-122.23496,37.83654],[-122.2278,37.83368],[-122.22729,37.83289],[-122.22753,37.83267],[-122.22729,37.83238],[-122.22777,37.83234],[-122.22916,37.83315],[-122.23081,37.83272],[-122.23076,37.83256],[-122.2314,37.83145],[-122.23227,37.83133],[-122.23251,37.8317],[-122.23522,37.83115],[-122.23535,37.83148],[-122.23714,37.83104],[-122.23706,37.8308],[-122.23783,37.83062],[-122.24091,37.83046],[-122.2427,37.83001],[-122.24364,37.83005],[-122.24337,37.82984],[-122.24364,37.82975],[-122.24336,37.82954],[-122.24374,37.82936],[-122.24422,37.82834],[-122.24759,37.82629],[-122.24813,37.82482],[-122.24929,37.82371],[-122.24869,37.82332],[-122.2494,37.82285],[-122.24642,37.82073],[-122.24555,37.8197],[-122.24474,37.81912],[-122.24633,37.81431],[-122.24861,37.81051],[-122.24847,37.81044],[-122.2487,37.81012],[-122.24884,37.81018],[-122.25033,37.80889],[-122.24952,37.80831],[-122.2494,37.808],[-122.25081,37.8048],[-122.25113,37.80445],[-122.2517,37.80503],[-122.25099,37.80552],[-122.2527,37.80618],[-122.25336,37.80545],[-122.25501,37.80621],[-122.25623,37.80794],[-122.25632,37.80854],[-122.25513,37.81112],[-122.25549,37.81282],[-122.25516,37.81378],[-122.2555,37.81464],[-122.2568,37.81592],[-122.26057,37.81834],[-122.26228,37.81861],[-122.25086,37.83692],[-122.24855,37.83601],[-122.24865,37.83583],[-122.24811,37.83559],[-122.24195,37.83842],[-122.24246,37.83965],[-122.23496,37.83654]]]}},{"type":"Feature","properties":{"school":"PRESCOTT","level":"elementary"},"geometry":{"type":"Polygon","coordinates":[[[-122.28996,37.82989],[-122.28981,37.82907],[-122.29081,37.82881],[-122.29112,37.82603],[-122.29017,37.82285],[-122.29226,37.82026],[-122.28972,37.81897],[-122.28941,37.81932],[-122.28972,37.81636],[-122.29308,37.80691],[-122.29318,37.80604],[-122.29494,37.80179],[-122.30954,37.79339],[-122.32782,37.79735],[-122.34053,37.80167],[-122.3437,37.8064],[-122.3336,37.81239],[-122.32314,37.81132],[-122.31823,37.81721],[-122.32222,37.81995],[-122.3308,37.81892],[-122.33198,37.82081],[-122.33062,37.82318],[-122.32233,37.82432],[-122.31884,37.82594],[-122.31709,37.82943],[-122.31059,37.8292],[-122.3042,37.82739],[-122.30027,37.82835],[-122.29822,37.83095],[-122.29738,37.83108],[-122.29742,37.8313],[-122.29448,37.83056],[-122.29353,37.83069],[-122.29063,37.83012],[-122.29052,37.82979],[-122.28996,37.82989]]]}},{"type":"Feature","properties":{"school":"PRIDE","level":"elementary"},"geometry":{"type":"Polygon","coordinates":[[[-122.16883,37.76551],[-122.16618,37.76211],[-122.16803,37.76123],[-122.16659,37.76079],[-122.16538,37.75737],[-122.16594,37.75712],[-122.16549,37.75653],[-122.16587,37.75635],[-122.16432,37.75425],[-122.17438,37.7496],[-122.17859,37.75515],[-122.18626,37.75875],[-122.18192,37.76159],[-122.18119,37.76086],[-122.18001,37.76178],[-122.17711,37.76359],[-122.17636,37.76286],[-122.17439,37.76403],[-122.17494,37.76456],[-122.17393,37.7652],[-122.1723,37.76359],[-122.16883,37.76551]]]}},{"type":"Feature","properties":{"school":"SANKOFA","level":"elementary"},"geometry":{"type":"Polygon","coordinates":[[[-122.26916,37.84674],[-122.26862,37.84678],[-122.26806,37.84414],[-122.26509,37.84451],[-122.26419,37.83784],[-122.27567,37.8363],[-122.27562,37.83643],[-122.27639,37.83693],[-122.27695,37.83687],[-122.27715,37.83708],[-122.27808,37.83691],[-122.27879,37.83724],[-122.2817,37.83669],[-122.28187,37.83719],[-122.2845,37.83672],[-122.28814,37.84802],[-122.28842,37.84796],[-122.28855,37.84837],[-122.28827,37.84843],[-122.28875,37.85],[-122.28614,37.85053],[-122.28602,37.85018],[-122.28358,37.85065],[-122.28321,37.84935],[-122.2831,37.84938],[-122.28298,37.84901],[-122.28248,37.84912],[-122.28219,37.84831],[-122.282,37.84835],[-122.28188,37.84778],[-122.28207,37.84776],[-122.28191,37.84698],[-122.2762,37.84774],[-122.27581,37.84587],[-122.26916,37.84674]]]}},{"type":"Feature","properties":{"school":"SEQUOIA","level":"elementary"},"geometry":{"type":"Polygon","coordinates":[[[-122.19535,37.80819],[-122.19573,37.80785],[-122.19598,37.80721],[-122.19589,37.80565],[-122.19614,37.80552],[-122.1968,37.80448],[-122.19947,37.80276],[-122.20495,37.79739],[-122.20771,37.79864],[-122.20886,37.79851],[-122.21734,37.80065],[-122.21601,37.80394],[-122.21364,37.80359],[-122.21301,37.80471],[-122.21077,37.80693],[-122.20702,37.80972],[-122.20585,37.80922],[-122.20538,37.80954],[-122.20447,37.81196],[-122.2043,37.81156],[-122.20376,37.8111],[-122.2028,37.81077],[-122.20165,37.81137],[-122.20055,37.81124],[-122.20014,37.81149],[-122.1998,37.81148],[-122.19905,37.81046],[-122.19899,37.81016],[-122.19793,37.81038],[-122.19575,37.80883],[-122.19535,37.80819]]]}},{"type":"Feature","properties":{"school":"THORNHILL","level":"elementary"},"geometry":{"type":"Polygon","coordinates":[[[-122.1952,37.84283],[-122.19688,37.84324],[-122.19787,37.84373],[-122.19863,37.84362],[-122.1993,37.84329],[-122.19896,37.8423],[-122.19918,37.84214],[-122.20054,37.84202],[-122.19985,37.84138],[-122.20021,37.84076],[-122.19947,37.84022],[-122.19995,37.83973],[-122.19934,37.83899],[-122.19932,37.83883],[-122.19965,37.83858],[-122.20131,37.8388],[-122.2021,37.83864],[-122.2034,37.83888],[-122.20415,37.83925],[-122.20441,37.83912],[-122.20467,37.83863],[-122.20333,37.83809],[-122.20311,37.83774],[-122.20319,37.83734],[-122.20371,37.83701],[-122.20327,37.83596],[-122.20369,37.83532],[-122.20422,37.83535],[-122.20453,37.83503],[-122.20534,37.83481],[-122.20574,37.83426],[-122.20739,37.83473],[-122.20786,37.83459],[-122.20936,37.83514],[-122.21202,37.83501],[-122.21241,37.83434],[-122.21419,37.83309],[-122.21523,37.83162],[-122.21555,37.8315],[-122.21669,37.83263],[-122.21952,37.83638],[-122.22209,37.83848],[-122.2227,37.83923],[-122.22292,37.83981],[-122.22345,37.84039],[-122.22398,37.84135],[-122.22477,37.84167],[-122.22783,37.84576],[-122.23069,37.8487],[-122.23053,37.84912],[-122.22872,37.8489],[-122.22802,37.84825],[-122.22659,37.84807],[-122.22529,37.84824],[-122.22446,37.84853],[-122.22305,37.84957],[-122.22254,37.85035],[-122.22184,37.85221],[-122.22134,37.85278],[-122.21942,37.85394],[-122.21731,37.85438],[-122.21419,37.85611],[-122.21409,37.85577],[-122.21194,37.85694],[-122.21042,37.85507],[-122.21089,37.85423],[-122.20891,37.85195],[-122.20311,37.8512],[-122.20077,37.84745],[-122.19911,37.84669],[-122.19512,37.84361],[-122.19506,37.843],[-122.1952,37.84283]]]}}]}