{"type":"FeatureCollection","features":[{"type":"Feature","properties":{"name":"Allendale","type":"Elementary","gradeSpan":"PK/TK-5","address":"3670 Penniman Ave"},"geometry":{"type":"Point","coordinates":[-122.20482,37.78834]}},{"type":"Feature","properties":{"name":"Bella Vista","type":"Elementary","gradeSpan":"TK-5","address":"1025 E 28th St"},"geometry":{"type":"Point","coordinates":[-122.2372,37.80032]}},{"type":"Feature","properties":{"name":"Brookfield","type":"Elementary","gradeSpan":"TK-5","address":"401 Jones Ave"},"geometry":{"type":"Point","coordinates":[-122.18895,37.73505]}},{"type":"Feature","properties":{"name":"Burckhalter","type":"Elementary","gradeSpan":"PK/TK-5","address":"3994 Burckhalter Ave"},"geometry":{"type":"Point","coordinates":[-122.1673,37.77524]}},{"type":"Feature","properties":{"name":"Carl B Munck","type":"Elementary","gradeSpan":"TK-5","address":"11900 Campus Dr"},"geometry":{"type":"Point","coordinates":[-122.17446,37.79461]}},{"type":"Feature","properties":{"name":"International Community","type":"Elementary","gradeSpan":"TK-5","address":"2825 International Blvd"},"geometry":{"type":"Point","coordinates":[-122.23148,37.7806]}},{"type":"Feature","properties":{"name":"Chabot","type":"Elementary","gradeSpan":"K-5","address":"6686 Chabot Rd"},"geometry":{"type":"Point","coordinates":[-122.24317,37.85047]}},{"type":"Feature","properties":{"name":"Cleveland","type":"Elementary","gradeSpan":"K-5","address":"745 Cleveland St"},"geometry":{"type":"Point","coordinates":[-122.24358,37.80419]}},{"type":"Feature","properties":{"name":"REACH Academy","type":"Elementary","gradeSpan":"TK-5","address":"9860 Sunnyside St"},"geometry":{"type":"Point","coordinates":[-122.16215,37.74699]}},{"type":"Feature","properties":{"name":"Crocker Highlands","type":"Elementary","gradeSpan":"K-5","address":"525 Midcrest Rd"},"geometry":{"type":"Point","coordinates":[-122.22734,37.81129]}},{"type":"Feature","properties":{"name":"Emerson","type":"Elementary","gradeSpan":"PK/TK-5","address":"4803 Lawton Ave"},"geometry":{"type":"Point","coordinates":[-122.25741,37.83442]}},{"type":"Feature","properties":{"name":"Franklin","type":"Elementary","gradeSpan":"TK-5","address":"915 Foothill Blvd"},"geometry":{"type":"Point","coordinates":[-122.24834,37.79371]}},{"type":"Feature","properties":{"name":"Fruitvale","type":"Elementary","gradeSpan":"TK-5","address":"3200 Boston Ave"},"geometry":{"type":"Point","coordinates":[-122.21403,37.7962]}},{"type":"Feature","properties":{"name":"Garfield","type":"Elementary","gradeSpan":"TK-5","address":"1640 22nd Ave"},"geometry":{"type":"Point","coordinates":[-122.23581,37.7866]}},{"type":"Feature","properties":{"name":"Glenview","type":"Elementary","gradeSpan":"TK-5","address":"4215 La Cresta Ave"},"geometry":{"type":"Point","coordinates":[-122.21876,37.8055]}},{"type":"Feature","properties":{"name":"Grass Valley","type":"Elementary","gradeSpan":"TK-5","address":"4720 Dunkirk Ave"},"geometry":{"type":"Point","coordinates":[-122.12532,37.75306]}},{"type":"Feature","properties":{"name":"Highland Community","type":"Elementary","gradeSpan":"PK/TK-5","address":"8521 A St"},"geometry":{"type":"Point","coordinates":[-122.17877,37.75206]}},{"type":"Feature","properties":{"name":"Hoover","type":"Elementary","gradeSpan":"TK-5","address":"890 Brockhurst St"},"geometry":{"type":"Point","coordinates":[-122.27434,37.82301]}},{"type":"Feature","properties":{"name":"Horace Mann","type":"Elementary","gradeSpan":"PK/TK-5","address":"5222 Ygnacio Ave"},"geometry":{"type":"Point","coordinates":[-122.20243,37.77359]}},{"type":"Feature","properties":{"name":"Oakland Academy of Knowledge","type":"Elementary","gradeSpan":"TK-5","address":"8755 Fontaine St"},"geometry":{"type":"Point","coordinates":[-122.15165,37.76273]}},{"type":"Feature","properties":{"name":"Global Family","type":"Elementary","gradeSpan":"TK-5","address":"2035 40th Ave"},"geometry":{"type":"Point","coordinates":[-122.2127,37.77973]}},{"type":"Feature","properties":{"name":"Joaquin Miller","type":"Elementary","gradeSpan":"TK-5","address":"5525 Ascot Dr"},"geometry":{"type":"Point","coordinates":[-122.20173,37.81866]}},{"type":"Feature","properties":{"name":"La Escuelita","type":"Elementary","gradeSpan":"TK-5","address":"1050 2nd Ave"},"geometry":{"type":"Point","coordinates":[-122.25864,37.79623]}},{"type":"Feature","properties":{"name":"Laurel","type":"Elementary","gradeSpan":"PK-5","address":"3750 Brown Ave"},"geometry":{"type":"Point","coordinates":[-122.19647,37.79308]}},{"type":"Feature","properties":{"name":"Lincoln","type":"Elementary","gradeSpan":"TK-5","address":"225 11th St"},"geometry":{"type":"Point","coordinates":[-122.26719,37.80007]}},{"type":"Feature","properties":{"name":"Lockwood STEAM Academy","type":"Elementary","gradeSpan":"TK-5","address":"6701 International Blvd"},"geometry":{"type":"Point","coordinates":[-122.19159,37.76118]}},{"type":"Feature","properties":{"name":"Manzanita SEED","type":"Elementary","gradeSpan":"TK-5","address":"2641 25th Ave"},"geometry":{"type":"Point","coordinates":[-122.22445,37.7915]}},{"type":"Feature","properties":{"name":"Markham","type":"Elementary","gradeSpan":"PK/TK-5","address":"7220 Krause Ave"},"geometry":{"type":"Point","coordinates":[-122.17885,37.76539]}},{"type":"Feature","properties":{"name":"Bridges Academy","type":"Elementary","gradeSpan":"TK-5","address":"1325 53rd Ave"},"geometry":{"type":"Point","coordinates":[-122.20732,37.76714]}},{"type":"Feature","properties":{"name":"Martin Luther King Jr","type":"Elementary","gradeSpan":"PK/TK-5","address":"960 10th St"},"geometry":{"type":"Point","coordinates":[-122.28301,37.80576]}},{"type":"Feature","properties":{"name":"Montclair","type":"Elementary","gradeSpan":"PK/TK-5","address":"1757 Mountain Blvd"},"geometry":{"type":"Point","coordinates":[-122.21235,37.83074]}},{"type":"Feature","properties":{"name":"Peralta","type":"Elementary","gradeSpan":"TK-5","address":"460 63rd St"},"geometry":{"type":"Point","coordinates":[-122.2588,37.84905]}},{"type":"Feature","properties":{"name":"Piedmont Avenue","type":"Elementary","gradeSpan":"TK-5","address":"4314 Piedmont Ave"},"geometry":{"type":"Point","coordinates":[-122.2489,37.82896]}},{"type":"Feature","properties":{"name":"Prescott","type":"Elementary","gradeSpan":"PK/TK-5","address":"920 Campbell St"},"geometry":{"type":"Point","coordinates":[-122.29817,37.80819]}},{"type":"Feature","properties":{"name":"Redwood Heights","type":"Elementary","gradeSpan":"K-5","address":"4401 39th Ave"},"geometry":{"type":"Point","coordinates":[-122.18604,37.79728]}},{"type":"Feature","properties":{"name":"Sequoia","type":"Elementary","gradeSpan":"TK-5","address":"3730 Lincoln Ave"},"geometry":{"type":"Point","coordinates":[-122.21121,37.80251]}},{"type":"Feature","properties":{"name":"Melrose Leadership Academy","type":"Elementary","gradeSpan":"TK-2","address":"5328 Brann St"},"geometry":{"type":"Point","coordinates":[-122.18983,37.77814]}},{"type":"Feature","properties":{"name":"Madison Park Academy Primary","type":"Elementary","gradeSpan":"TK-5","address":"470 El Paseo Dr"},"geometry":{"type":"Point","coordinates":[-122.17744,37.72802]}},{"type":"Feature","properties":{"name":"Fred T Korematsu Discovery Academy","type":"Elementary","gradeSpan":"TK-5","address":"10315 E St"},"geometry":{"type":"Point","coordinates":[-122.17359,37.73744]}},{"type":"Feature","properties":{"name":"Thornhill","type":"Elementary","gradeSpan":"TK-5","address":"5880 Thornhill Dr"},"geometry":{"type":"Point","coordinates":[-122.21167,37.83576]}},{"type":"Feature","properties":{"name":"Sankofa United","type":"Elementary","gradeSpan":"PK/TK-5","address":"581 61st St"},"geometry":{"type":"Point","coordinates":[-122.26384,37.84718]}},{"type":"Feature","properties":{"name":"East Oakland PRIDE","type":"Elementary","gradeSpan":"TK-5","address":"8000 Birch St"},"geometry":{"type":"Point","coordinates":[-122.17463,37.75912]}},{"type":"Feature","properties":{"name":"ACORN Woodland","type":"Elementary","gradeSpan":"K-5","address":"1025 81st Ave"},"geometry":{"type":"Point","coordinates":[-122.1872,37.75237]}},{"type":"Feature","properties":{"name":"Manzanita Community","type":"Elementary","gradeSpan":"TK-5","address":"2409 E 27th St"},"geometry":{"type":"Point","coordinates":[-122.22433,37.79235]}},{"type":"Feature","properties":{"name":"Esperanza","type":"Elementary","gradeSpan":"TK-5","address":"10315 E St"},"geometry":{"type":"Point","coordinates":[-122.17306,37.73672]}},{"type":"Feature","properties":{"name":"EnCompass Academy","type":"Elementary","gradeSpan":"TK-5","address":"1025 81st Ave"},"geometry":{"type":"Point","coordinates":[-122.18653,37.75269]}},{"type":"Feature","properties":{"name":"Think College Now","type":"Elementary","gradeSpan":"TK-5","address":"2825 International Blvd"},"geometry":{"type":"Point","coordinates":[-122.23039,37.77995]}}]}